{"type":"FeatureCollection","features":[{"type":"Feature","geometry":{"type":"Polygon","coordinates":[[[124.963029,10.303506],[124.963334,10.302466],[124.963314,10.302255],[124.963314,10.302111],[124.963303,10.301973],[124.963655,10.301838],[124.963624,10.301612],[124.963798,10.301556],[124.963863,10.301091],[124.963818,10.300401],[124.963821,10.299736],[124.96432,10.299719],[124.964221,10.299541],[124.963813,10.298566],[124.963722,10.298451],[124.963827,10.298343],[124.963765,10.298149],[124.963886,10.297219],[124.963593,10.297061],[124.962668,10.297481],[124.962536,10.296557],[124.962505,10.296354],[124.962195,10.296385],[124.961657,10.296424],[124.961547,10.296532],[124.961051,10.296368],[124.960949,10.295971],[124.960732,10.294959],[124.960214,10.295309],[124.959118,10.295954],[124.958971,10.296072],[124.958819,10.296343],[124.958709,10.296267],[124.958591,10.296264],[124.95852,10.296089],[124.958379,10.296072],[124.958317,10.295914],[124.958174,10.29583],[124.958238,10.295692],[124.95825,10.295579],[124.958171,10.295449],[124.958371,10.295218],[124.958436,10.295128],[124.95803,10.29501],[124.957624,10.294855],[124.957655,10.294742],[124.957725,10.294629],[124.957779,10.294536],[124.957649,10.294511],[124.957514,10.294319],[124.957494,10.294026],[124.957599,10.293756],[124.957559,10.293643],[124.957351,10.293595],[124.95726,10.293125],[124.95712,10.293113],[124.957074,10.29326],[124.956905,10.293567],[124.956784,10.293601],[124.956412,10.293674],[124.95628,10.293395],[124.956311,10.293037],[124.956175,10.29295],[124.956088,10.293063],[124.955984,10.293158],[124.95464,10.293243],[124.954501,10.293268],[124.954501,10.293268],[124.95464,10.293243],[124.955984,10.293158],[124.956088,10.293063],[124.956175,10.29295],[124.956639,10.291826],[124.960066,10.286617],[124.961088,10.285101],[124.961819,10.283705],[124.963386,10.280333],[124.96258,10.279383],[124.963104,10.279155],[124.962932,10.279059],[124.962833,10.27887],[124.96287,10.278769],[124.962729,10.278202],[124.962729,10.278202],[124.96287,10.278769],[124.962833,10.27887],[124.962932,10.279059],[124.963104,10.279155],[124.96258,10.279383],[124.963386,10.280333],[124.963822,10.28135],[124.963608,10.282009],[124.963822,10.282176],[124.964149,10.282567],[124.964245,10.282626],[124.964431,10.282677],[124.964589,10.282669],[124.964721,10.282677],[124.964837,10.282688],[124.964998,10.282643],[124.965384,10.282638],[124.965626,10.282793],[124.965908,10.283111],[124.966488,10.283793],[124.966725,10.284244],[124.966925,10.2845],[124.96697,10.284681],[124.967148,10.284777],[124.967289,10.284805],[124.967503,10.28492],[124.96761,10.284965],[124.967847,10.285025],[124.968097,10.28496],[124.968199,10.284841],[124.96834,10.284779],[124.96843,10.284937],[124.968729,10.28527],[124.968591,10.285487],[124.96876,10.285771],[124.968717,10.286033],[124.968737,10.286171],[124.968701,10.286411],[124.968805,10.2866],[124.968915,10.286484],[124.969087,10.286766],[124.969453,10.286887],[124.969574,10.287017],[124.969735,10.287487],[124.969619,10.287766],[124.969602,10.288023],[124.969704,10.288164],[124.96976,10.288293],[124.969749,10.288431],[124.96978,10.28884],[124.969842,10.289308],[124.970411,10.289302],[124.970859,10.289956],[124.971113,10.290246],[124.971516,10.290663],[124.972246,10.291015],[124.97242,10.291489],[124.972998,10.292461],[124.973007,10.293008],[124.973334,10.293058],[124.973508,10.293256],[124.973753,10.293628],[124.973917,10.293887],[124.974303,10.294397],[124.974049,10.294772],[124.974004,10.295113],[124.973328,10.295487],[124.973269,10.295634],[124.973412,10.295781],[124.973722,10.296826],[124.974044,10.297026],[124.974619,10.297466],[124.975067,10.297761],[124.97474,10.298193],[124.974537,10.29852],[124.974278,10.298776],[124.973951,10.298897],[124.973852,10.298914],[124.973937,10.298553],[124.973821,10.298525],[124.973215,10.298677],[124.972184,10.298559],[124.971662,10.298542],[124.970425,10.298331],[124.969917,10.297664],[124.969766,10.297793],[124.969679,10.298051],[124.969104,10.298559],[124.96904,10.298606],[124.969275,10.298996],[124.969189,10.299161],[124.969247,10.299304],[124.969357,10.299419],[124.969704,10.300027],[124.969791,10.30116],[124.969531,10.301407],[124.970041,10.30167],[124.970021,10.301718],[124.969999,10.301813],[124.969497,10.302593],[124.969779,10.303139],[124.969546,10.303369],[124.969047,10.303091],[124.968887,10.303066],[124.968385,10.303049],[124.968469,10.304039],[124.968607,10.304703],[124.969451,10.305015],[124.969369,10.305724],[124.969271,10.305926],[124.969198,10.30606],[124.969142,10.306141],[124.969114,10.306254],[124.969253,10.306517],[124.969174,10.306557],[124.969092,10.306622],[124.969267,10.30693],[124.969524,10.307433],[124.969657,10.307865],[124.968809,10.307885],[124.968682,10.307939],[124.968504,10.307888],[124.968285,10.307868],[124.967552,10.307787],[124.967445,10.307854],[124.967347,10.307874],[124.966693,10.307733],[124.966437,10.307687],[124.966339,10.307589],[124.966296,10.307407],[124.966103,10.307398],[124.966027,10.30723],[124.965932,10.307107],[124.965752,10.307054],[124.965629,10.306639],[124.965688,10.306423],[124.965694,10.306086],[124.965651,10.305842],[124.965593,10.305769],[124.965436,10.305814],[124.965357,10.305752],[124.964642,10.305567],[124.964505,10.30571],[124.964468,10.305968],[124.964373,10.306204],[124.964255,10.306378],[124.963907,10.306232],[124.96375,10.306044],[124.963941,10.305559],[124.963902,10.305377],[124.964367,10.304908],[124.964196,10.304718],[124.964151,10.30451],[124.964157,10.304364],[124.964261,10.304205],[124.964255,10.304014],[124.964092,10.30382],[124.963069,10.30375],[124.963029,10.303506]]]},"properties":{"BARANGAY_C":1,"Name":"Anahawan","barangay_n":"Anahawan","descriptio":"Barangay Anahawan","boundary_p":1}},{"type":"Feature","geometry":{"type":"Polygon","coordinates":[[[124.970425,10.298331],[124.971662,10.298542],[124.972184,10.298559],[124.973215,10.298677],[124.973821,10.298525],[124.973937,10.298553],[124.973852,10.298914],[124.973951,10.298897],[124.974278,10.298776],[124.974537,10.29852],[124.97474,10.298193],[124.975375,10.298464],[124.975484,10.298514],[124.975725,10.298629],[124.975961,10.298755],[124.976168,10.298833],[124.976285,10.299311],[124.976478,10.299596],[124.976562,10.299716],[124.976176,10.300183],[124.97612,10.300272],[124.97621,10.300362],[124.976347,10.300518],[124.976707,10.300409],[124.976973,10.300463],[124.977224,10.300985],[124.977294,10.30094],[124.977588,10.301561],[124.977652,10.30162],[124.977778,10.302151],[124.978327,10.30325],[124.978446,10.3038],[124.978727,10.30496],[124.978537,10.305751],[124.979495,10.306726],[124.979554,10.306804],[124.979607,10.306871],[124.979613,10.306922],[124.979213,10.307511],[124.97933,10.307618],[124.979417,10.307713],[124.979473,10.307654],[124.979772,10.307313],[124.980015,10.307559],[124.980247,10.307291],[124.980359,10.307288],[124.980862,10.307788],[124.980611,10.308134],[124.980908,10.308393],[124.981156,10.308135],[124.981214,10.308172],[124.981288,10.308247],[124.981427,10.308382],[124.981259,10.308642],[124.980982,10.309028],[124.98037,10.309475],[124.978709,10.309904],[124.978667,10.309618],[124.978446,10.309177],[124.978398,10.30906],[124.978373,10.309009],[124.978317,10.30897],[124.978227,10.308883],[124.97777,10.309113],[124.977341,10.30883],[124.977865,10.308589],[124.977577,10.308123],[124.977218,10.308073],[124.977137,10.308003],[124.977019,10.30802],[124.976839,10.307952],[124.976475,10.307636],[124.976255,10.307451],[124.975826,10.306974],[124.975644,10.306825],[124.975571,10.306758],[124.975503,10.306733],[124.975442,10.306761],[124.975366,10.306694],[124.975313,10.30668],[124.975274,10.306273],[124.975164,10.306108],[124.975111,10.305903],[124.975122,10.305665],[124.974528,10.305138],[124.974461,10.305166],[124.974348,10.305194],[124.973976,10.304431],[124.973575,10.30359],[124.973614,10.303478],[124.973099,10.302816],[124.973041,10.302864],[124.972732,10.302382],[124.972385,10.301987],[124.972197,10.301735],[124.972093,10.301278],[124.971367,10.301527],[124.971221,10.301286],[124.971277,10.301067],[124.971227,10.299988],[124.971025,10.299935],[124.970613,10.299792],[124.971011,10.298926],[124.97063,10.298724],[124.970425,10.298331]]]},"properties":{"BARANGAY_C":2,"Name":"Banday (Poblacion)","barangay_n":"Banday (Poblacion)","descriptio":"Barangay Banday (Poblacion)","boundary_p":1}},{"type":"Feature","geometry":{"type":"Polygon","coordinates":[[[124.97474,10.298193],[124.975067,10.297761],[124.974619,10.297466],[124.974044,10.297026],[124.973722,10.296826],[124.973412,10.295781],[124.973269,10.295634],[124.973328,10.295487],[124.974004,10.295113],[124.974049,10.294772],[124.974384,10.294762],[124.975262,10.294458],[124.975656,10.294781],[124.975707,10.295032],[124.975746,10.295262],[124.975884,10.295367],[124.976225,10.295695],[124.97578,10.295957],[124.975761,10.296508],[124.976563,10.296559],[124.976591,10.296865],[124.976886,10.296905],[124.977258,10.297121],[124.977986,10.297518],[124.979053,10.297726],[124.979444,10.297797],[124.979393,10.298193],[124.979077,10.298495],[124.979369,10.299068],[124.979596,10.299481],[124.979877,10.300182],[124.979561,10.300336],[124.979503,10.300746],[124.979773,10.30141],[124.98026,10.301348],[124.980049,10.301689],[124.980637,10.301805],[124.98146,10.301533],[124.981773,10.301947],[124.981989,10.30195],[124.982219,10.30201],[124.982335,10.302083],[124.982698,10.302081],[124.982796,10.3029],[124.98274,10.304612],[124.982572,10.305836],[124.982447,10.306473],[124.982246,10.307029],[124.981859,10.3079],[124.981427,10.308382],[124.981288,10.308247],[124.981214,10.308172],[124.981156,10.308135],[124.980908,10.308393],[124.980611,10.308134],[124.980862,10.307788],[124.980359,10.307288],[124.980247,10.307291],[124.980015,10.307559],[124.979772,10.307313],[124.979473,10.307654],[124.979417,10.307713],[124.97933,10.307618],[124.979213,10.307511],[124.979613,10.306922],[124.979607,10.306871],[124.979554,10.306804],[124.979495,10.306726],[124.978537,10.305751],[124.978727,10.30496],[124.978446,10.3038],[124.978327,10.30325],[124.977778,10.302151],[124.977652,10.30162],[124.977588,10.301561],[124.977294,10.30094],[124.977224,10.300985],[124.976973,10.300463],[124.976707,10.300409],[124.976347,10.300518],[124.97621,10.300362],[124.97612,10.300272],[124.976176,10.300183],[124.976562,10.299716],[124.976478,10.299596],[124.976285,10.299311],[124.976168,10.298833],[124.975961,10.298755],[124.975725,10.298629],[124.975484,10.298514],[124.975375,10.298464],[124.97474,10.298193]]]},"properties":{"BARANGAY_C":3,"Name":"Bogo (Poblacion)","barangay_n":"Bogo (Poblacion)","descriptio":"Barangay Bogo ","boundary_p":1}},{"type":"Feature","geometry":{"type":"Polygon","coordinates":[[[124.9566,10.308938],[124.956704,10.308306],[124.956976,10.30832],[124.957072,10.308171],[124.957164,10.308078],[124.957248,10.308017],[124.957271,10.307921],[124.957293,10.307792],[124.957963,10.307133],[124.958395,10.306909],[124.958449,10.306845],[124.95844,10.306676],[124.958297,10.30662],[124.958199,10.306174],[124.95809,10.305902],[124.958036,10.305796],[124.958149,10.305471],[124.958381,10.30535],[124.959155,10.305173],[124.959324,10.305572],[124.959565,10.30567],[124.959699,10.305479],[124.959764,10.305148],[124.95984,10.305145],[124.960566,10.304346],[124.960518,10.304212],[124.960255,10.304057],[124.960103,10.303825],[124.960182,10.303525],[124.960081,10.303149],[124.959862,10.303073],[124.959722,10.303079],[124.959657,10.302899],[124.959789,10.302585],[124.960628,10.302835],[124.961345,10.303196],[124.961424,10.303255],[124.961469,10.303339],[124.96172,10.303203],[124.962048,10.303358],[124.962177,10.303504],[124.963029,10.303506],[124.963069,10.30375],[124.964092,10.30382],[124.964255,10.304014],[124.964261,10.304205],[124.964157,10.304364],[124.964151,10.30451],[124.964196,10.304718],[124.964367,10.304908],[124.963902,10.305377],[124.963941,10.305559],[124.96375,10.306044],[124.963907,10.306232],[124.964255,10.306378],[124.964373,10.306204],[124.964468,10.305968],[124.964505,10.30571],[124.964642,10.305567],[124.965357,10.305752],[124.965436,10.305814],[124.965593,10.305769],[124.965651,10.305842],[124.965694,10.306086],[124.965688,10.306423],[124.965629,10.306639],[124.965752,10.307054],[124.965932,10.307107],[124.966027,10.30723],[124.966103,10.307398],[124.966296,10.307407],[124.966339,10.307589],[124.966437,10.307687],[124.966693,10.307733],[124.96655,10.308178],[124.966513,10.308316],[124.9664,10.30844],[124.966383,10.308665],[124.966471,10.30882],[124.966806,10.309319],[124.966854,10.309445],[124.967113,10.309668],[124.967245,10.309795],[124.967164,10.309978],[124.967234,10.310085],[124.967181,10.31022],[124.967243,10.31031],[124.967196,10.310632],[124.967202,10.310787],[124.967317,10.31123],[124.967266,10.311297],[124.967117,10.311452],[124.967193,10.31163],[124.967382,10.312215],[124.967123,10.312655],[124.96761,10.312866],[124.968224,10.312646],[124.968235,10.312933],[124.967866,10.313626],[124.967928,10.314221],[124.967903,10.31435],[124.967785,10.314612],[124.967695,10.314866],[124.967672,10.315264],[124.967116,10.315659],[124.966741,10.315851],[124.965975,10.315345],[124.966043,10.314958],[124.965934,10.314741],[124.96572,10.31444],[124.965607,10.314459],[124.965423,10.314256],[124.96522,10.314372],[124.965108,10.314249],[124.964691,10.314669],[124.964646,10.314538],[124.964338,10.314511],[124.964717,10.31438],[124.964484,10.314151],[124.964274,10.314181],[124.964206,10.314095],[124.964071,10.313959],[124.964586,10.313847],[124.964458,10.313711],[124.963586,10.313719],[124.963444,10.313441],[124.963725,10.313509],[124.963654,10.313332],[124.963823,10.313084],[124.963451,10.313111],[124.963293,10.313096],[124.963072,10.313186],[124.96317,10.312829],[124.963436,10.312814],[124.963729,10.312649],[124.963714,10.312562],[124.963406,10.312382],[124.963323,10.312532],[124.962974,10.312495],[124.963094,10.312209],[124.96317,10.312153],[124.963162,10.31207],[124.963057,10.312018],[124.962989,10.312074],[124.962805,10.312243],[124.962538,10.312258],[124.962302,10.312029],[124.962343,10.311807],[124.962088,10.311871],[124.961126,10.311124],[124.960608,10.310928],[124.96039,10.310801],[124.960183,10.310872],[124.959834,10.310748],[124.959838,10.310542],[124.959474,10.310391],[124.959556,10.309907],[124.959676,10.309802],[124.959263,10.309652],[124.959034,10.309295],[124.958726,10.309449],[124.958662,10.309806],[124.95849,10.309862],[124.958159,10.309794],[124.95778,10.309682],[124.957532,10.309528],[124.957231,10.309659],[124.95704,10.30949],[124.9566,10.308938]]]},"properties":{"BARANGAY_C":4,"Name":"Cabascan","barangay_n":"Cabascan","descriptio":"Barangay Cabascan","boundary_p":1}},{"type":"Feature","geometry":{"type":"Polygon","coordinates":[[[124.944323,10.299732],[124.943493,10.300553],[124.942711,10.300162],[124.942362,10.299937],[124.941746,10.299054],[124.94189,10.298106],[124.941398,10.296543],[124.941336,10.296453],[124.941274,10.296105],[124.941316,10.29588],[124.941555,10.295601],[124.942002,10.294912],[124.942084,10.294724],[124.942205,10.294673],[124.942126,10.294367],[124.942084,10.293675],[124.941834,10.293495],[124.941836,10.293276],[124.941831,10.292899],[124.941834,10.292359],[124.941926,10.291921],[124.941789,10.291499],[124.941716,10.291157],[124.942328,10.289774],[124.942149,10.289004],[124.942368,10.288132],[124.942373,10.287857],[124.942407,10.287632],[124.942463,10.287497],[124.942593,10.287216],[124.941417,10.287036],[124.941001,10.286299],[124.941266,10.286125],[124.941164,10.285467],[124.940866,10.285163],[124.941035,10.284516],[124.941451,10.284466],[124.941552,10.283999],[124.941794,10.283319],[124.941986,10.283344],[124.942382,10.283172],[124.942723,10.282668],[124.943282,10.282249],[124.943581,10.282514],[124.943758,10.282472],[124.943902,10.282775],[124.944126,10.282785],[124.944248,10.282785],[124.944406,10.282701],[124.944453,10.282925],[124.944597,10.283139],[124.944616,10.283354],[124.94476,10.283521],[124.945082,10.283503],[124.945241,10.284221],[124.945833,10.284282],[124.946118,10.283666],[124.946984,10.283416],[124.946967,10.283971],[124.947892,10.285666],[124.949322,10.287979],[124.950007,10.289805],[124.950717,10.290301],[124.951351,10.290608],[124.952653,10.291589],[124.952653,10.291589],[124.952082,10.291919],[124.948586,10.291915],[124.947457,10.292339],[124.947317,10.293151],[124.946995,10.293189],[124.946472,10.293926],[124.946794,10.294388],[124.948134,10.294902],[124.948596,10.295793],[124.948446,10.296615],[124.947868,10.296871],[124.947074,10.296442],[124.946369,10.296446],[124.945716,10.298388],[124.944323,10.299732]]]},"properties":{"BARANGAY_C":5,"Name":"Camansi","barangay_n":"Camansi","descriptio":"Barangay Camansi","boundary_p":1}},{"type":"Feature","geometry":{"type":"Polygon","coordinates":[[[124.967672,10.315264],[124.967695,10.314866],[124.967785,10.314612],[124.967903,10.31435],[124.967928,10.314221],[124.967866,10.313626],[124.968235,10.312933],[124.968224,10.312646],[124.96761,10.312866],[124.967123,10.312655],[124.967382,10.312215],[124.967193,10.31163],[124.967117,10.311452],[124.967266,10.311297],[124.967317,10.31123],[124.967202,10.310787],[124.967196,10.310632],[124.967243,10.31031],[124.967181,10.31022],[124.967234,10.310085],[124.967164,10.309978],[124.967245,10.309795],[124.967113,10.309668],[124.966854,10.309445],[124.966806,10.309319],[124.966471,10.30882],[124.966383,10.308665],[124.9664,10.30844],[124.966513,10.308316],[124.96655,10.308178],[124.966693,10.307733],[124.967347,10.307874],[124.967445,10.307854],[124.967552,10.307787],[124.968285,10.307868],[124.968504,10.307888],[124.968302,10.308409],[124.967949,10.308809],[124.968886,10.30915],[124.969306,10.3096],[124.970103,10.309262],[124.971311,10.310378],[124.971263,10.310493],[124.971235,10.310583],[124.972001,10.311335],[124.972387,10.311603],[124.97266,10.311958],[124.973018,10.31202],[124.973484,10.312006],[124.973853,10.31193],[124.974064,10.312016],[124.97424,10.312329],[124.974335,10.312599],[124.974394,10.312678],[124.974599,10.312898],[124.974861,10.312741],[124.975246,10.312748],[124.975582,10.312741],[124.97565,10.312796],[124.975758,10.312809],[124.975846,10.31281],[124.975947,10.312844],[124.976315,10.313084],[124.976095,10.314171],[124.976096,10.314847],[124.976074,10.315305],[124.975047,10.314743],[124.974206,10.314803],[124.973526,10.314504],[124.973419,10.314625],[124.973196,10.314746],[124.973168,10.31513],[124.973049,10.315054],[124.972824,10.314992],[124.972735,10.315009],[124.972652,10.315042],[124.972588,10.315073],[124.972525,10.314968],[124.972423,10.314982],[124.971945,10.314958],[124.971898,10.315021],[124.97195,10.315092],[124.971413,10.315066],[124.971419,10.315154],[124.971283,10.315185],[124.971187,10.315126],[124.971204,10.315035],[124.971089,10.31499],[124.970595,10.314849],[124.970603,10.314722],[124.970773,10.314595],[124.970541,10.314401],[124.970451,10.314474],[124.970118,10.314245],[124.969929,10.314409],[124.970042,10.31448],[124.969985,10.314564],[124.969726,10.314502],[124.969774,10.314781],[124.968101,10.315236],[124.967672,10.315264]]]},"properties":{"BARANGAY_C":6,"Name":"Cambite","barangay_n":"Cambite","descriptio":"Barangay Cambite","boundary_p":1}},{"type":"Feature","geometry":{"type":"Polygon","coordinates":[[[124.958255,10.235103],[124.959079,10.233431],[124.957801,10.233147],[124.957398,10.232852],[124.956989,10.232051],[124.956995,10.231904],[124.959061,10.231635],[124.959395,10.231611],[124.959608,10.231574],[124.96019,10.231496],[124.960598,10.231466],[124.961325,10.231356],[124.962513,10.231226],[124.962798,10.231181],[124.963791,10.231013],[124.964659,10.230915],[124.964769,10.230863],[124.965006,10.23012],[124.966266,10.230321],[124.968123,10.229927],[124.96848,10.229876],[124.969819,10.230732],[124.969901,10.230417],[124.970406,10.23019],[124.973654,10.230868],[124.974883,10.230638],[124.975212,10.23007],[124.974815,10.229439],[124.975484,10.229385],[124.976277,10.229432],[124.976657,10.22932],[124.976645,10.229219],[124.976645,10.229111],[124.977081,10.229052],[124.977095,10.229209],[124.977466,10.229156],[124.977438,10.229027],[124.97763,10.229027],[124.977799,10.229005],[124.977937,10.228865],[124.978174,10.228937],[124.978416,10.228937],[124.978256,10.231818],[124.978069,10.232409],[124.978416,10.233192],[124.978564,10.233504],[124.979377,10.235274],[124.979585,10.238319],[124.980239,10.239717],[124.980528,10.240047],[124.982005,10.241809],[124.98193,10.242136],[124.981734,10.242432],[124.981677,10.242492],[124.981443,10.242586],[124.98142,10.242507],[124.981209,10.24253],[124.980857,10.24208],[124.980183,10.242427],[124.980136,10.242314],[124.980061,10.242197],[124.980009,10.242122],[124.979972,10.242038],[124.979958,10.241832],[124.979808,10.241719],[124.978637,10.242263],[124.977981,10.242286],[124.977156,10.242024],[124.976622,10.24193],[124.97651,10.241926],[124.975957,10.241748],[124.975615,10.241584],[124.974889,10.241766],[124.9745,10.240548],[124.974139,10.240553],[124.974008,10.240525],[124.973914,10.240483],[124.97309,10.240544],[124.97301,10.240188],[124.971914,10.24008],[124.971881,10.239298],[124.971108,10.238604],[124.970438,10.238412],[124.964079,10.236685],[124.961666,10.23603],[124.960571,10.235732],[124.959372,10.235407],[124.958255,10.235103]]]},"properties":{"BARANGAY_C":7,"Name":"Canlupao","barangay_n":"Canlupao","descriptio":"Barangay Canlupao","boundary_p":1}},{"type":"Feature","geometry":{"type":"Polygon","coordinates":[[[124.938227,10.308436],[124.938212,10.308023],[124.938013,10.307596],[124.937799,10.307478],[124.937796,10.307171],[124.937332,10.307048],[124.937175,10.307022],[124.937023,10.307011],[124.936891,10.306963],[124.936674,10.306944],[124.936359,10.306842],[124.936295,10.306437],[124.935853,10.306474],[124.935687,10.306213],[124.936053,10.305805],[124.936303,10.30549],[124.936145,10.305197],[124.936238,10.304483],[124.935974,10.304497],[124.935864,10.304458],[124.93594,10.303808],[124.936101,10.302841],[124.936146,10.30215],[124.936137,10.301973],[124.93621,10.301773],[124.936359,10.301273],[124.936469,10.300817],[124.934653,10.301157],[124.934481,10.300629],[124.934177,10.300477],[124.934116,10.30037],[124.934076,10.300097],[124.933913,10.300058],[124.93375,10.300078],[124.933612,10.300097],[124.933455,10.300106],[124.933452,10.299982],[124.933334,10.299692],[124.933188,10.299614],[124.933126,10.299501],[124.933033,10.299378],[124.93285,10.299338],[124.932701,10.298978],[124.932057,10.29825],[124.932012,10.298641],[124.931877,10.298604],[124.931619,10.298503],[124.931529,10.298396],[124.931441,10.298143],[124.931225,10.297876],[124.931127,10.297075],[124.931056,10.296709],[124.930907,10.296507],[124.931082,10.296417],[124.931298,10.2955],[124.932021,10.295489],[124.932409,10.294511],[124.932243,10.294066],[124.932018,10.293378],[124.931391,10.292146],[124.930994,10.291758],[124.930755,10.291539],[124.930772,10.290839],[124.930547,10.290296],[124.930047,10.289582],[124.929752,10.289183],[124.929887,10.288516],[124.929763,10.288111],[124.928641,10.288156],[124.928444,10.288069],[124.92764,10.28765],[124.927553,10.287451],[124.927851,10.287139],[124.928109,10.287189],[124.928197,10.286942],[124.928253,10.286498],[124.928281,10.286261],[124.92902,10.284839],[124.929369,10.284459],[124.929546,10.284543],[124.929858,10.284327],[124.931354,10.284518],[124.931776,10.284546],[124.932358,10.284161],[124.932577,10.283564],[124.932425,10.283466],[124.932138,10.283253],[124.932029,10.282991],[124.932349,10.282766],[124.932479,10.283216],[124.932557,10.28314],[124.932715,10.281785],[124.932951,10.281695],[124.933623,10.281734],[124.933865,10.281774],[124.934199,10.281608],[124.934663,10.280548],[124.934959,10.280953],[124.935316,10.281068],[124.935586,10.281079],[124.93639,10.282155],[124.936609,10.282256],[124.936873,10.282239],[124.937059,10.282301],[124.937756,10.282469],[124.938662,10.282869],[124.938566,10.283341],[124.939567,10.283594],[124.940591,10.283319],[124.941013,10.283245],[124.941794,10.283319],[124.941552,10.283999],[124.941451,10.284466],[124.941035,10.284516],[124.940866,10.285163],[124.941164,10.285467],[124.941266,10.286125],[124.941001,10.286299],[124.941417,10.287036],[124.942593,10.287216],[124.942463,10.287497],[124.942407,10.287632],[124.942373,10.287857],[124.942368,10.288132],[124.942149,10.289004],[124.942328,10.289774],[124.941716,10.291157],[124.941789,10.291499],[124.941926,10.291921],[124.941834,10.292359],[124.941831,10.292899],[124.941836,10.293276],[124.941834,10.293495],[124.942084,10.293675],[124.942126,10.294367],[124.942205,10.294673],[124.942084,10.294724],[124.942002,10.294912],[124.941555,10.295601],[124.941316,10.29588],[124.941274,10.296105],[124.941336,10.296453],[124.941398,10.296543],[124.94189,10.298106],[124.941746,10.299054],[124.942362,10.299937],[124.942711,10.300162],[124.943493,10.300553],[124.944323,10.299732],[124.943415,10.301647],[124.944094,10.302087],[124.944183,10.302948],[124.943157,10.303459],[124.942764,10.304774],[124.9429,10.306254],[124.942525,10.306577],[124.941598,10.306605],[124.940329,10.305842],[124.938541,10.306352],[124.938508,10.306624],[124.939173,10.306919],[124.939168,10.307359],[124.938859,10.307794],[124.938227,10.308436]]]},"properties":{"BARANGAY_C":8,"Name":"Carnaga","barangay_n":"Carnaga","descriptio":"Barangay Carnaga","boundary_p":1}},{"type":"Feature","geometry":{"type":"Polygon","coordinates":[[[124.944323,10.299732],[124.945716,10.298388],[124.946369,10.296446],[124.947074,10.296442],[124.947868,10.296871],[124.948446,10.296615],[124.948596,10.295793],[124.948134,10.294902],[124.946794,10.294388],[124.946472,10.293926],[124.946995,10.293189],[124.947317,10.293151],[124.947457,10.292339],[124.948586,10.291915],[124.952082,10.291919],[124.952653,10.291589],[124.952653,10.291589],[124.952875,10.291673],[124.953123,10.291752],[124.953123,10.291752],[124.953123,10.291752],[124.953123,10.291752],[124.953481,10.291668],[124.953822,10.291547],[124.953631,10.292062],[124.953546,10.292409],[124.95473,10.292801],[124.954501,10.293268],[124.954501,10.293268],[124.954501,10.293268],[124.95464,10.293243],[124.955984,10.293158],[124.956088,10.293063],[124.956175,10.29295],[124.956311,10.293037],[124.95628,10.293395],[124.956412,10.293674],[124.956784,10.293601],[124.956905,10.293567],[124.957074,10.29326],[124.95712,10.293113],[124.95726,10.293125],[124.957351,10.293595],[124.957559,10.293643],[124.957599,10.293756],[124.957494,10.294026],[124.957514,10.294319],[124.957649,10.294511],[124.957779,10.294536],[124.957725,10.294629],[124.957655,10.294742],[124.957624,10.294855],[124.95803,10.29501],[124.958436,10.295128],[124.958371,10.295218],[124.958171,10.295449],[124.95825,10.295579],[124.958238,10.295692],[124.958174,10.29583],[124.958317,10.295914],[124.958379,10.296072],[124.95852,10.296089],[124.958591,10.296264],[124.958709,10.296267],[124.958819,10.296343],[124.958971,10.296072],[124.959118,10.295954],[124.960214,10.295309],[124.960732,10.294959],[124.960949,10.295971],[124.961051,10.296368],[124.961547,10.296532],[124.961657,10.296424],[124.962195,10.296385],[124.962505,10.296354],[124.962536,10.296557],[124.962668,10.297481],[124.963593,10.297061],[124.963886,10.297219],[124.963765,10.298149],[124.963827,10.298343],[124.963722,10.298451],[124.963813,10.298566],[124.964221,10.299541],[124.96432,10.299719],[124.963821,10.299736],[124.963818,10.300401],[124.963863,10.301091],[124.963798,10.301556],[124.963624,10.301612],[124.963655,10.301838],[124.963303,10.301973],[124.963314,10.302111],[124.963314,10.302255],[124.963334,10.302466],[124.963029,10.303506],[124.962177,10.303504],[124.962048,10.303358],[124.96172,10.303203],[124.961469,10.303339],[124.961424,10.303255],[124.961345,10.303196],[124.960628,10.302835],[124.959789,10.302585],[124.959657,10.302899],[124.959722,10.303079],[124.959862,10.303073],[124.960081,10.303149],[124.960182,10.303525],[124.960103,10.303825],[124.960255,10.304057],[124.960518,10.304212],[124.960566,10.304346],[124.95984,10.305145],[124.959764,10.305148],[124.959699,10.305479],[124.959565,10.30567],[124.959324,10.305572],[124.959155,10.305173],[124.958381,10.30535],[124.958149,10.305471],[124.958036,10.305796],[124.95809,10.305902],[124.958199,10.306174],[124.958297,10.30662],[124.95844,10.306676],[124.958449,10.306845],[124.958395,10.306909],[124.957963,10.307133],[124.957293,10.307792],[124.957271,10.307921],[124.957248,10.308017],[124.957164,10.308078],[124.957072,10.308171],[124.956976,10.30832],[124.956704,10.308306],[124.9566,10.308938],[124.95615,10.309415],[124.956176,10.30967],[124.956168,10.310072],[124.956022,10.310286],[124.955868,10.310557],[124.955842,10.310632],[124.954948,10.311672],[124.954211,10.311379],[124.954012,10.312254],[124.953746,10.31189],[124.953558,10.311792],[124.952882,10.310482],[124.95263,10.310275],[124.95263,10.310275],[124.95078,10.309319],[124.95078,10.309319],[124.950641,10.309203],[124.950202,10.308959],[124.950279,10.308492],[124.950059,10.307925],[124.950059,10.307925],[124.950059,10.307925],[124.949703,10.307939],[124.949296,10.307523],[124.948991,10.307527],[124.948584,10.307546],[124.948738,10.306427],[124.948977,10.306062],[124.948565,10.305945],[124.948532,10.305753],[124.948443,10.305669],[124.948336,10.305683],[124.948209,10.305641],[124.94813,10.305556],[124.948111,10.305814],[124.948031,10.306029],[124.947104,10.305809],[124.946945,10.30579],[124.946866,10.305603],[124.94717,10.305453],[124.947118,10.305275],[124.947151,10.304737],[124.947498,10.304592],[124.947601,10.303688],[124.947259,10.303342],[124.946725,10.302672],[124.946163,10.302424],[124.946486,10.301567],[124.945334,10.300952],[124.944653,10.300633],[124.944967,10.300357],[124.945061,10.300153],[124.944536,10.299894],[124.944323,10.299732]]]},"properties":{"BARANGAY_C":9,"Name":"Cawayan","barangay_n":"Cawayan","descriptio":"Barangay Cawayan","boundary_p":1}},{"type":"Feature","geometry":{"type":"Polygon","coordinates":[[[124.94787,10.270992],[124.947546,10.270346],[124.947625,10.269515],[124.947204,10.268583],[124.947182,10.268],[124.938707,10.24865],[124.947777,10.252122],[124.947777,10.252121],[124.948753,10.252495],[124.949163,10.252245],[124.949505,10.252077],[124.949592,10.252136],[124.949985,10.251516],[124.950117,10.251631],[124.950426,10.251959],[124.950614,10.252015],[124.951023,10.251807],[124.951099,10.251875],[124.951506,10.252355],[124.952278,10.25353],[124.952542,10.253404],[124.953588,10.252826],[124.953959,10.25266],[124.954531,10.252711],[124.955598,10.252969],[124.956136,10.253132],[124.956378,10.253087],[124.956636,10.253034],[124.956681,10.252935],[124.957177,10.252935],[124.958005,10.253422],[124.958179,10.253641],[124.958404,10.25391],[124.95915,10.254449],[124.959936,10.254954],[124.960688,10.254915],[124.961401,10.255061],[124.96139,10.255297],[124.961841,10.255412],[124.961954,10.255541],[124.961954,10.25576],[124.962128,10.256068],[124.962206,10.256607],[124.962004,10.256904],[124.962464,10.257269],[124.963772,10.256669],[124.963435,10.25746],[124.96357,10.25901],[124.963534,10.259257],[124.963149,10.259406],[124.963256,10.259872],[124.963733,10.259715],[124.964008,10.260096],[124.964288,10.26047],[124.964485,10.261288],[124.964373,10.262792],[124.964721,10.262808],[124.964406,10.264004],[124.964524,10.264127],[124.964165,10.265081],[124.963278,10.265435],[124.963738,10.265845],[124.964496,10.2664],[124.964597,10.266327],[124.965007,10.266782],[124.965332,10.26718],[124.96541,10.267416],[124.964786,10.267603],[124.963732,10.267547],[124.962161,10.267434],[124.961371,10.267553],[124.961174,10.267625],[124.961177,10.26808],[124.960729,10.268033],[124.960387,10.268615],[124.960087,10.268967],[124.960213,10.269314],[124.960134,10.26968],[124.959599,10.269586],[124.959159,10.270003],[124.959562,10.270753],[124.959384,10.270969],[124.959126,10.27148],[124.958179,10.272042],[124.95743,10.272046],[124.95711,10.271917],[124.956639,10.272226],[124.956364,10.272018],[124.956089,10.271681],[124.955735,10.27153],[124.955,10.272641],[124.954697,10.272641],[124.954388,10.272203],[124.954399,10.272096],[124.953647,10.271855],[124.95221,10.272832],[124.951778,10.273679],[124.951077,10.273954],[124.950762,10.274016],[124.950471,10.273786],[124.950482,10.273241],[124.950302,10.272792],[124.949915,10.272826],[124.949803,10.272826],[124.949505,10.272944],[124.948972,10.272602],[124.948192,10.271608],[124.948119,10.27149],[124.94787,10.270992]]]},"properties":{"BARANGAY_C":10,"Name":"Hinagtikan","barangay_n":"Hinagtikan","descriptio":"Barangay Hinagtikan","boundary_p":1}},{"type":"Feature","geometry":{"type":"Polygon","coordinates":[[[124.947777,10.252121],[124.938707,10.24865],[124.941713,10.244338],[124.942133,10.244079],[124.942242,10.244012],[124.942452,10.243883],[124.942934,10.243622],[124.943272,10.243364],[124.943318,10.243196],[124.943321,10.242932],[124.943292,10.242678],[124.943389,10.242345],[124.943463,10.242238],[124.943857,10.241951],[124.943937,10.241826],[124.944192,10.241687],[124.944471,10.241599],[124.944601,10.241323],[124.944809,10.241323],[124.945223,10.241167],[124.945442,10.241108],[124.945601,10.241085],[124.945822,10.241045],[124.945765,10.240753],[124.945513,10.240755],[124.945058,10.240667],[124.945439,10.240315],[124.945533,10.240219],[124.945612,10.240122],[124.94572,10.240213],[124.945734,10.240347],[124.945888,10.240369],[124.94601,10.240244],[124.946299,10.240287],[124.946271,10.239895],[124.946467,10.239702],[124.946356,10.239501],[124.946135,10.23954],[124.945995,10.239359],[124.946069,10.239183],[124.945879,10.239103],[124.946058,10.238944],[124.946171,10.238856],[124.946265,10.238777],[124.946399,10.238777],[124.946606,10.238365],[124.946535,10.238082],[124.946677,10.23798],[124.946705,10.23781],[124.94683,10.237736],[124.946966,10.237816],[124.946949,10.237577],[124.946836,10.237429],[124.946932,10.237373],[124.947063,10.237384],[124.947188,10.23735],[124.947239,10.237106],[124.947114,10.237049],[124.947018,10.237021],[124.947114,10.236527],[124.947233,10.236129],[124.947591,10.235874],[124.947937,10.235618],[124.948136,10.235414],[124.948227,10.234903],[124.949221,10.233665],[124.948795,10.23346],[124.949141,10.232983],[124.9503,10.232796],[124.950856,10.232779],[124.951754,10.232728],[124.952645,10.232682],[124.953537,10.232444],[124.954604,10.232251],[124.955484,10.232137],[124.956455,10.23199],[124.956995,10.231904],[124.956989,10.232051],[124.957398,10.232852],[124.957801,10.233147],[124.959079,10.233431],[124.958255,10.235103],[124.958861,10.235758],[124.967126,10.2447],[124.967216,10.24651],[124.967222,10.246642],[124.967699,10.246767],[124.968148,10.247192],[124.968114,10.2473],[124.967251,10.247567],[124.966927,10.24763],[124.966927,10.247737],[124.96729,10.248061],[124.96758,10.24868],[124.967728,10.24872],[124.968085,10.248907],[124.968324,10.249254],[124.968659,10.248947],[124.969005,10.249254],[124.969369,10.248964],[124.969744,10.248816],[124.969795,10.249004],[124.969477,10.24935],[124.96963,10.249509],[124.969698,10.249589],[124.969607,10.249736],[124.969732,10.25002],[124.969732,10.250111],[124.969755,10.250667],[124.970243,10.250855],[124.970368,10.250741],[124.970947,10.250946],[124.971879,10.251531],[124.971884,10.251775],[124.971771,10.251951],[124.972146,10.25299],[124.972163,10.253115],[124.971561,10.253421],[124.971481,10.253495],[124.971379,10.253529],[124.970981,10.253808],[124.970879,10.253751],[124.970834,10.253927],[124.970732,10.254432],[124.970522,10.254586],[124.97034,10.254597],[124.969982,10.254614],[124.96992,10.254915],[124.97038,10.255057],[124.970414,10.255386],[124.970335,10.255477],[124.969407,10.255747],[124.968847,10.25571],[124.968539,10.255733],[124.968078,10.255728],[124.968064,10.256279],[124.967747,10.256559],[124.967635,10.256302],[124.96742,10.256311],[124.966949,10.256484],[124.966912,10.256652],[124.966506,10.25682],[124.966417,10.256656],[124.966254,10.256591],[124.966543,10.256092],[124.966161,10.255435],[124.965303,10.256143],[124.964934,10.255728],[124.963745,10.256232],[124.963772,10.256669],[124.962464,10.257269],[124.962004,10.256904],[124.962206,10.256607],[124.962128,10.256068],[124.961954,10.25576],[124.961954,10.255541],[124.961841,10.255412],[124.96139,10.255297],[124.961401,10.255061],[124.960688,10.254915],[124.959936,10.254954],[124.95915,10.254449],[124.958404,10.25391],[124.958179,10.253641],[124.958005,10.253422],[124.957177,10.252935],[124.956681,10.252935],[124.956636,10.253034],[124.956378,10.253087],[124.956136,10.253132],[124.955598,10.252969],[124.954531,10.252711],[124.953959,10.25266],[124.953588,10.252826],[124.952542,10.253404],[124.952278,10.25353],[124.951506,10.252355],[124.951099,10.251875],[124.951023,10.251807],[124.950614,10.252015],[124.950426,10.251959],[124.950117,10.251631],[124.949985,10.251516],[124.949592,10.252136],[124.949505,10.252077],[124.949163,10.252245],[124.948753,10.252495],[124.947777,10.252121]]]},"properties":{"BARANGAY_C":11,"Name":"Hinapo","barangay_n":"Hinapo","descriptio":"Barangay Hinapo","boundary_p":1}},{"type":"Feature","geometry":{"type":"Polygon","coordinates":[[[124.929369,10.284459],[124.92902,10.284839],[124.92868,10.284681],[124.92827,10.283226],[124.927837,10.28342],[124.926969,10.284226],[124.926715,10.284274],[124.926555,10.283983],[124.927163,10.282936],[124.927081,10.282358],[124.926622,10.281884],[124.92532,10.282437],[124.912701,10.287798],[124.918495,10.25852],[124.941713,10.244338],[124.938707,10.24865],[124.933221,10.257196],[124.938149,10.273115],[124.937493,10.27419],[124.937507,10.274544],[124.937626,10.275256],[124.937249,10.276216],[124.936981,10.276655],[124.936981,10.276655],[124.935568,10.278971],[124.936185,10.279399],[124.935729,10.279768],[124.935748,10.279962],[124.934663,10.280548],[124.934199,10.281608],[124.933865,10.281774],[124.933623,10.281734],[124.932951,10.281695],[124.932715,10.281785],[124.932557,10.28314],[124.932479,10.283216],[124.932349,10.282766],[124.932029,10.282991],[124.932138,10.283253],[124.932425,10.283466],[124.932577,10.283564],[124.932358,10.284161],[124.931776,10.284546],[124.931354,10.284518],[124.929858,10.284327],[124.929546,10.284543],[124.929369,10.284459]]]},"properties":{"BARANGAY_C":12,"Name":"Hugpa","barangay_n":"Hugpa","descriptio":"Barangay Hugpa","boundary_p":1}},{"type":"Feature","geometry":{"type":"Polygon","coordinates":[[[124.975947,10.312844],[124.975846,10.31281],[124.975758,10.312809],[124.97565,10.312796],[124.975582,10.312741],[124.975246,10.312748],[124.974861,10.312741],[124.974599,10.312898],[124.974394,10.312678],[124.974335,10.312599],[124.97424,10.312329],[124.974064,10.312016],[124.973853,10.31193],[124.973484,10.312006],[124.973018,10.31202],[124.97266,10.311958],[124.972387,10.311603],[124.972001,10.311335],[124.971235,10.310583],[124.971263,10.310493],[124.971311,10.310378],[124.970103,10.309262],[124.969306,10.3096],[124.968886,10.30915],[124.967949,10.308809],[124.968302,10.308409],[124.968504,10.307888],[124.968682,10.307939],[124.968809,10.307885],[124.969657,10.307865],[124.969524,10.307433],[124.969267,10.30693],[124.969092,10.306622],[124.969174,10.306557],[124.969253,10.306517],[124.969578,10.306735],[124.969682,10.306653],[124.970872,10.307255],[124.971262,10.307503],[124.971339,10.307503],[124.971802,10.307068],[124.971867,10.307212],[124.972237,10.307102],[124.972398,10.307571],[124.972763,10.307854],[124.972932,10.307899],[124.973122,10.307825],[124.973376,10.307789],[124.973458,10.308032],[124.973712,10.308261],[124.974052,10.308586],[124.974215,10.308506],[124.974504,10.308467],[124.975029,10.308487],[124.975286,10.308201],[124.975465,10.30821],[124.975448,10.308475],[124.975654,10.308693],[124.975846,10.308693],[124.975987,10.308549],[124.976171,10.308515],[124.976103,10.308656],[124.976131,10.308857],[124.976544,10.309255],[124.976485,10.309586],[124.976519,10.309801],[124.976434,10.309982],[124.976513,10.310018],[124.97668,10.310035],[124.97657,10.310349],[124.977053,10.310699],[124.976951,10.3109],[124.976315,10.313084],[124.975947,10.312844]]]},"properties":{"BARANGAY_C":13,"Name":"Iniguihan","barangay_n":"Iniguihan","descriptio":"Barangay Iniguihan","boundary_p":1}},{"type":"Feature","geometry":{"type":"Polygon","coordinates":[[[124.965007,10.266782],[124.964597,10.266327],[124.964496,10.2664],[124.963738,10.265845],[124.963278,10.265435],[124.964165,10.265081],[124.964524,10.264127],[124.964406,10.264004],[124.964721,10.262808],[124.964373,10.262792],[124.964485,10.261288],[124.964288,10.26047],[124.964008,10.260096],[124.963733,10.259715],[124.965192,10.259844],[124.964611,10.259165],[124.964833,10.258952],[124.965957,10.258499],[124.966231,10.25848],[124.966684,10.258985],[124.968398,10.25827],[124.96903,10.258303],[124.97014,10.258534],[124.97235,10.258619],[124.974045,10.258076],[124.974342,10.258039],[124.974909,10.257755],[124.975145,10.257609],[124.975319,10.257519],[124.9754,10.257491],[124.975494,10.257453],[124.976061,10.257529],[124.976594,10.25784],[124.977156,10.257906],[124.977416,10.257307],[124.977524,10.257189],[124.978714,10.257364],[124.979205,10.257378],[124.979432,10.257236],[124.979592,10.257297],[124.979861,10.257434],[124.980173,10.257406],[124.980404,10.257335],[124.980805,10.257208],[124.981046,10.25726],[124.981155,10.257222],[124.981278,10.256778],[124.981391,10.256773],[124.981518,10.256863],[124.981627,10.256816],[124.981754,10.256731],[124.981816,10.256906],[124.982189,10.257052],[124.982189,10.256868],[124.98234,10.256863],[124.982401,10.257],[124.982467,10.257132],[124.982708,10.256972],[124.982855,10.25717],[124.983124,10.257222],[124.983374,10.257317],[124.983322,10.257416],[124.982954,10.25878],[124.982949,10.258927],[124.983369,10.260192],[124.983822,10.261287],[124.983846,10.261424],[124.984259,10.26429],[124.984095,10.264221],[124.98397,10.264209],[124.983755,10.264239],[124.983296,10.264305],[124.98224,10.264509],[124.982311,10.26476],[124.98179,10.26475],[124.981601,10.264736],[124.981497,10.26466],[124.980939,10.264764],[124.980976,10.264386],[124.980782,10.264282],[124.980404,10.26423],[124.979429,10.264121],[124.979277,10.263979],[124.979178,10.263889],[124.978335,10.263468],[124.977417,10.26351],[124.976329,10.263941],[124.97621,10.263709],[124.975183,10.263931],[124.974999,10.264239],[124.972415,10.265233],[124.971203,10.265124],[124.97019,10.265228],[124.969887,10.265261],[124.968884,10.265413],[124.967857,10.265559],[124.966943,10.265862],[124.966371,10.265948],[124.965007,10.266782]]]},"properties":{"BARANGAY_C":14,"Name":"Looc","barangay_n":"Looc","descriptio":"Barangay Looc","boundary_p":1}},{"type":"Feature","geometry":{"type":"Polygon","coordinates":[[[124.957774,10.322892],[124.957348,10.323116],[124.957079,10.32305],[124.95682,10.323155],[124.956602,10.323234],[124.956478,10.323362],[124.955971,10.32373],[124.955104,10.323264],[124.956009,10.322307],[124.95593,10.322262],[124.955584,10.321777],[124.954533,10.321424],[124.954037,10.320493],[124.953954,10.320553],[124.953045,10.320876],[124.952839,10.320906],[124.95137,10.320951],[124.950863,10.319563],[124.951566,10.317568],[124.951426,10.316618],[124.950757,10.315826],[124.951089,10.31448],[124.951758,10.314343],[124.951842,10.313457],[124.954012,10.312254],[124.953746,10.31189],[124.953558,10.311792],[124.952882,10.310482],[124.95263,10.310275],[124.95263,10.310275],[124.95263,10.310275],[124.952882,10.310482],[124.953558,10.311792],[124.953746,10.31189],[124.954012,10.312254],[124.954211,10.311379],[124.954948,10.311672],[124.955842,10.310632],[124.955868,10.310557],[124.956022,10.310286],[124.956168,10.310072],[124.956176,10.30967],[124.95615,10.309415],[124.9566,10.308938],[124.95704,10.30949],[124.957231,10.309659],[124.957532,10.309528],[124.95778,10.309682],[124.958159,10.309794],[124.95849,10.309862],[124.958662,10.309806],[124.958726,10.309449],[124.959034,10.309295],[124.959263,10.309652],[124.959676,10.309802],[124.959556,10.309907],[124.959474,10.310391],[124.959838,10.310542],[124.959834,10.310748],[124.960183,10.310872],[124.96039,10.310801],[124.960608,10.310928],[124.961126,10.311124],[124.962088,10.311871],[124.962343,10.311807],[124.962302,10.312029],[124.962538,10.312258],[124.962805,10.312243],[124.962989,10.312074],[124.963057,10.312018],[124.963162,10.31207],[124.96317,10.312153],[124.963094,10.312209],[124.962974,10.312495],[124.963323,10.312532],[124.963406,10.312382],[124.963714,10.312562],[124.963729,10.312649],[124.963436,10.312814],[124.96317,10.312829],[124.963072,10.313186],[124.963293,10.313096],[124.963451,10.313111],[124.963823,10.313084],[124.963654,10.313332],[124.963725,10.313509],[124.963444,10.313441],[124.963586,10.313719],[124.964458,10.313711],[124.964586,10.313847],[124.964071,10.313959],[124.964206,10.314095],[124.964274,10.314181],[124.964484,10.314151],[124.964717,10.31438],[124.964338,10.314511],[124.964646,10.314538],[124.964691,10.314669],[124.965108,10.314249],[124.96522,10.314372],[124.965423,10.314256],[124.965607,10.314459],[124.96572,10.31444],[124.965934,10.314741],[124.966043,10.314958],[124.965975,10.315345],[124.966741,10.315851],[124.966352,10.316612],[124.966349,10.316801],[124.966219,10.316965],[124.966036,10.317789],[124.965646,10.318076],[124.965347,10.317913],[124.965082,10.317588],[124.963925,10.317899],[124.964064,10.318271],[124.964176,10.318511],[124.963976,10.319027],[124.963725,10.318897],[124.963386,10.318869],[124.963324,10.318652],[124.963231,10.318477],[124.962989,10.318322],[124.962808,10.318457],[124.962695,10.318649],[124.96219,10.319236],[124.962345,10.319636],[124.962152,10.320697],[124.96199,10.321008],[124.961917,10.321142],[124.96185,10.321288],[124.961746,10.32173],[124.96166,10.321977],[124.962001,10.322147],[124.96218,10.322119],[124.962261,10.322136],[124.962278,10.322287],[124.962088,10.32236],[124.961973,10.322374],[124.961777,10.322366],[124.961716,10.322285],[124.961427,10.322374],[124.960853,10.322581],[124.96026,10.322626],[124.959411,10.322598],[124.959005,10.322567],[124.958661,10.322581],[124.957774,10.322892]]]},"properties":{"BARANGAY_C":15,"Name":"Maanyag","barangay_n":"Maanyag","descriptio":"Barangay Maanyag","boundary_p":1}},{"type":"Feature","geometry":{"type":"Polygon","coordinates":[[[124.972289,10.280147],[124.971863,10.279598],[124.971347,10.279172],[124.970583,10.27874],[124.970255,10.277048],[124.969613,10.276612],[124.968778,10.276392],[124.968516,10.276678],[124.96733,10.274808],[124.967015,10.274184],[124.966603,10.273101],[124.966219,10.27223],[124.965994,10.271948],[124.964761,10.269656],[124.964395,10.26975],[124.964221,10.26953],[124.964271,10.269145],[124.964618,10.268705],[124.964786,10.267603],[124.96541,10.267416],[124.965898,10.267459],[124.966826,10.267454],[124.967229,10.267435],[124.967666,10.267398],[124.967787,10.267426],[124.968317,10.267951],[124.969161,10.267716],[124.969677,10.267637],[124.969658,10.267473],[124.969959,10.26743],[124.970202,10.267318],[124.970582,10.26865],[124.971337,10.268401],[124.971478,10.268349],[124.971684,10.268157],[124.972392,10.268031],[124.97235,10.267918],[124.973307,10.267496],[124.97386,10.268026],[124.973612,10.268523],[124.974155,10.268978],[124.974245,10.269222],[124.974296,10.269615],[124.974638,10.269873],[124.975159,10.270028],[124.975858,10.269794],[124.976561,10.269733],[124.976725,10.26939],[124.978793,10.269784],[124.978967,10.269653],[124.97974,10.2697],[124.9802,10.269803],[124.981255,10.270047],[124.981274,10.269958],[124.981536,10.270103],[124.981466,10.270197],[124.982741,10.269859],[124.982817,10.269948],[124.983768,10.2697],[124.983651,10.270047],[124.983656,10.270258],[124.983754,10.270361],[124.984036,10.270197],[124.9842,10.270178],[124.984284,10.270145],[124.98465,10.270122],[124.984387,10.27324],[124.983937,10.27468],[124.983904,10.274821],[124.983862,10.27491],[124.98382,10.275083],[124.983684,10.275444],[124.983543,10.275829],[124.983234,10.277248],[124.982964,10.278018],[124.982303,10.27957],[124.9822,10.279786],[124.982162,10.281047],[124.98213,10.281404],[124.982228,10.282287],[124.981897,10.282312],[124.981785,10.282303],[124.98149,10.282317],[124.980286,10.282337],[124.98014,10.282298],[124.979865,10.282842],[124.97845,10.282915],[124.979079,10.282326],[124.97877,10.281913],[124.978582,10.281812],[124.978052,10.281543],[124.977552,10.281459],[124.977356,10.281478],[124.977067,10.282259],[124.9768,10.282194],[124.976632,10.281843],[124.975877,10.281748],[124.974269,10.280881],[124.97389,10.281548],[124.973673,10.281285],[124.973396,10.281139],[124.973146,10.280895],[124.972862,10.280586],[124.972657,10.280462],[124.972483,10.28037],[124.972289,10.280147]]]},"properties":{"BARANGAY_C":16,"Name":"Maslog","barangay_n":"Maslog","descriptio":"Barangay Maslog","boundary_p":1}},{"type":"Feature","geometry":{"type":"Polygon","coordinates":[[[124.967216,10.24651],[124.967126,10.2447],[124.958861,10.235758],[124.958255,10.235103],[124.959372,10.235407],[124.961666,10.23603],[124.964079,10.236685],[124.970438,10.238412],[124.971108,10.238604],[124.971881,10.239298],[124.971914,10.24008],[124.97301,10.240188],[124.97309,10.240544],[124.973914,10.240483],[124.974008,10.240525],[124.974139,10.240553],[124.9745,10.240548],[124.974889,10.241766],[124.975615,10.241584],[124.975957,10.241748],[124.97651,10.241926],[124.976622,10.24193],[124.977156,10.242024],[124.977981,10.242286],[124.978637,10.242263],[124.979808,10.241719],[124.979958,10.241832],[124.979972,10.242038],[124.980009,10.242122],[124.980061,10.242197],[124.980136,10.242314],[124.980183,10.242427],[124.980857,10.24208],[124.981209,10.24253],[124.98142,10.242507],[124.981443,10.242586],[124.981677,10.242492],[124.981734,10.242432],[124.98193,10.242136],[124.982005,10.241809],[124.98268,10.242381],[124.982797,10.242465],[124.984268,10.24381],[124.984345,10.244016],[124.983544,10.24478],[124.983308,10.244928],[124.983211,10.245446],[124.982322,10.245594],[124.982341,10.245706],[124.982387,10.245891],[124.98191,10.245969],[124.981942,10.246141],[124.981975,10.246428],[124.981979,10.24659],[124.981748,10.246576],[124.981553,10.246594],[124.981248,10.246618],[124.981271,10.246187],[124.980808,10.246108],[124.980826,10.245969],[124.980539,10.246011],[124.979942,10.246895],[124.979799,10.246854],[124.979553,10.246548],[124.979007,10.246914],[124.978812,10.247034],[124.978822,10.247599],[124.978576,10.247789],[124.978132,10.248067],[124.977317,10.248706],[124.976937,10.24846],[124.976474,10.248303],[124.976141,10.248335],[124.97602,10.248071],[124.975891,10.248085],[124.975724,10.248224],[124.975743,10.248359],[124.975909,10.24847],[124.975969,10.248817],[124.975817,10.248872],[124.975775,10.249044],[124.97577,10.250173],[124.975557,10.250405],[124.975525,10.250826],[124.97533,10.250743],[124.974756,10.251488],[124.97421,10.251544],[124.974516,10.252368],[124.974367,10.252507],[124.974066,10.252785],[124.973863,10.252905],[124.973432,10.252845],[124.973113,10.252859],[124.972932,10.252845],[124.972608,10.252937],[124.972404,10.253067],[124.972163,10.253115],[124.972146,10.25299],[124.971771,10.251951],[124.971884,10.251775],[124.971879,10.251531],[124.970947,10.250946],[124.970368,10.250741],[124.970243,10.250855],[124.969755,10.250667],[124.969732,10.250111],[124.969732,10.25002],[124.969607,10.249736],[124.969698,10.249589],[124.96963,10.249509],[124.969477,10.24935],[124.969795,10.249004],[124.969744,10.248816],[124.969369,10.248964],[124.969005,10.249254],[124.968659,10.248947],[124.968324,10.249254],[124.968085,10.248907],[124.967728,10.24872],[124.96758,10.24868],[124.96729,10.248061],[124.966927,10.247737],[124.966927,10.24763],[124.967251,10.247567],[124.968114,10.2473],[124.968148,10.247192],[124.967699,10.246767],[124.967222,10.246642],[124.967216,10.24651]]]},"properties":{"BARANGAY_C":17,"Name":"Ponong","barangay_n":"Ponong","descriptio":"Barangay Ponong","boundary_p":1}},{"type":"Feature","geometry":{"type":"Polygon","coordinates":[[[124.958989,10.27651],[124.958989,10.27651],[124.958989,10.27651],[124.958426,10.276826],[124.957727,10.277186],[124.956526,10.277643],[124.956526,10.277643],[124.95616,10.277434],[124.955996,10.276893],[124.955996,10.276893],[124.955675,10.277124],[124.955546,10.277243],[124.955376,10.277412],[124.955236,10.277564],[124.955236,10.277767],[124.95514,10.277936],[124.954993,10.2781],[124.954909,10.278376],[124.955038,10.278533],[124.954672,10.278533],[124.954379,10.278905],[124.954424,10.279114],[124.954334,10.279232],[124.954136,10.279322],[124.954018,10.279503],[124.954131,10.279666],[124.953967,10.279875],[124.953785,10.279805],[124.953681,10.27979],[124.95345,10.279938],[124.953341,10.280073],[124.953262,10.280201],[124.953224,10.280313],[124.952901,10.280302],[124.952513,10.280326],[124.952251,10.280363],[124.951521,10.280805],[124.951211,10.280867],[124.950614,10.280551],[124.950614,10.280551],[124.950614,10.280551],[124.950366,10.280805],[124.950129,10.280827],[124.950045,10.280692],[124.950045,10.280692],[124.950045,10.280692],[124.949701,10.280737],[124.949565,10.280985],[124.949368,10.281036],[124.949244,10.281036],[124.949019,10.281137],[124.948726,10.281594],[124.948078,10.281706],[124.947852,10.28165],[124.947852,10.28165],[124.947852,10.28165],[124.947649,10.281735],[124.947339,10.281684],[124.947125,10.281684],[124.946978,10.281836],[124.947226,10.281983],[124.947063,10.282383],[124.947119,10.282535],[124.947266,10.282636],[124.947142,10.282834],[124.946984,10.283416],[124.946984,10.283416],[124.946118,10.283666],[124.945833,10.284282],[124.945241,10.284221],[124.945082,10.283503],[124.94476,10.283521],[124.944616,10.283354],[124.944597,10.283139],[124.944453,10.282925],[124.944406,10.282701],[124.944248,10.282785],[124.944126,10.282785],[124.943902,10.282775],[124.943758,10.282472],[124.943581,10.282514],[124.943282,10.282249],[124.942723,10.282668],[124.942382,10.283172],[124.941986,10.283344],[124.941794,10.283319],[124.941013,10.283245],[124.940591,10.283319],[124.939567,10.283594],[124.938566,10.283341],[124.938662,10.282869],[124.937756,10.282469],[124.937059,10.282301],[124.936873,10.282239],[124.936609,10.282256],[124.93639,10.282155],[124.935586,10.281079],[124.935316,10.281068],[124.934959,10.280953],[124.934663,10.280548],[124.935748,10.279962],[124.935729,10.279768],[124.936185,10.279399],[124.935568,10.278971],[124.936981,10.276655],[124.937249,10.276216],[124.937626,10.275256],[124.937493,10.27419],[124.938149,10.273115],[124.933221,10.257196],[124.938707,10.24865],[124.947182,10.268],[124.947204,10.268583],[124.947625,10.269515],[124.947546,10.270346],[124.94787,10.270993],[124.94787,10.270992],[124.948119,10.27149],[124.948192,10.271608],[124.948972,10.272602],[124.949505,10.272944],[124.949803,10.272826],[124.949915,10.272826],[124.950302,10.272792],[124.950482,10.273241],[124.950471,10.273786],[124.950762,10.274016],[124.951077,10.273954],[124.951778,10.273679],[124.95221,10.272832],[124.953647,10.271855],[124.954399,10.272096],[124.954388,10.272203],[124.954697,10.272641],[124.955,10.272641],[124.955735,10.27153],[124.956089,10.271681],[124.956364,10.272018],[124.956639,10.272226],[124.95711,10.271917],[124.95743,10.272046],[124.958179,10.272042],[124.958573,10.272637],[124.958905,10.273439],[124.959182,10.273744],[124.959496,10.274156],[124.958845,10.274766],[124.958751,10.275548],[124.958957,10.276003],[124.958989,10.27651]]]},"properties":{"BARANGAY_C":18,"Name":"Rizal","barangay_n":"Rizal","descriptio":"Barangay Rizal","boundary_p":2}},{"type":"Feature","geometry":{"type":"Polygon","coordinates":[[[124.963733,10.259715],[124.963256,10.259872],[124.963149,10.259406],[124.963534,10.259257],[124.96357,10.25901],[124.963435,10.25746],[124.963772,10.256669],[124.963745,10.256232],[124.964934,10.255728],[124.965303,10.256143],[124.966161,10.255435],[124.966543,10.256092],[124.966254,10.256591],[124.966417,10.256656],[124.966506,10.25682],[124.966912,10.256652],[124.966949,10.256484],[124.96742,10.256311],[124.967635,10.256302],[124.967747,10.256559],[124.968064,10.256279],[124.968078,10.255728],[124.968539,10.255733],[124.968847,10.25571],[124.969407,10.255747],[124.970335,10.255477],[124.970489,10.255509],[124.970946,10.254931],[124.971669,10.255416],[124.97186,10.255337],[124.972243,10.255057],[124.972537,10.254698],[124.972676,10.254371],[124.973026,10.254283],[124.97305,10.254152],[124.973325,10.254068],[124.973339,10.253532],[124.973768,10.25355],[124.973917,10.253546],[124.974272,10.253574],[124.974701,10.253555],[124.974985,10.253583],[124.975181,10.253784],[124.975251,10.253909],[124.97534,10.25439],[124.975703,10.254236],[124.975685,10.253583],[124.975629,10.253266],[124.975825,10.253014],[124.976492,10.253382],[124.976841,10.252776],[124.97693,10.251755],[124.977028,10.251825],[124.977135,10.251918],[124.977341,10.251913],[124.977574,10.251881],[124.977583,10.252221],[124.9777,10.252305],[124.978063,10.252356],[124.978166,10.25238],[124.97832,10.252445],[124.978497,10.252464],[124.97866,10.25237],[124.9788,10.2523],[124.978852,10.252207],[124.979248,10.251694],[124.979719,10.250799],[124.97985,10.250911],[124.97991,10.251018],[124.979892,10.251172],[124.979924,10.251358],[124.980941,10.250939],[124.981025,10.251065],[124.981347,10.250901],[124.981715,10.250761],[124.981841,10.250216],[124.982047,10.24939],[124.982196,10.249278],[124.983726,10.249036],[124.983828,10.249026],[124.984803,10.249166],[124.985356,10.248988],[124.985524,10.248941],[124.985841,10.24893],[124.985957,10.24889],[124.986069,10.248862],[124.986268,10.248831],[124.986545,10.250398],[124.986456,10.25318],[124.986606,10.254395],[124.986373,10.255409],[124.985687,10.255859],[124.984732,10.255995],[124.983623,10.256649],[124.983374,10.257317],[124.983124,10.257222],[124.982855,10.25717],[124.982708,10.256972],[124.982467,10.257132],[124.982401,10.257],[124.98234,10.256863],[124.982189,10.256868],[124.982189,10.257052],[124.981816,10.256906],[124.981754,10.256731],[124.981627,10.256816],[124.981518,10.256863],[124.981391,10.256773],[124.981278,10.256778],[124.981155,10.257222],[124.981046,10.25726],[124.980805,10.257208],[124.980404,10.257335],[124.980173,10.257406],[124.979861,10.257434],[124.979592,10.257297],[124.979432,10.257236],[124.979205,10.257378],[124.978714,10.257364],[124.977524,10.257189],[124.977416,10.257307],[124.977156,10.257906],[124.976594,10.25784],[124.976061,10.257529],[124.975494,10.257453],[124.9754,10.257491],[124.975319,10.257519],[124.975145,10.257609],[124.974909,10.257755],[124.974342,10.258039],[124.974045,10.258076],[124.97235,10.258619],[124.97014,10.258534],[124.96903,10.258303],[124.968398,10.25827],[124.966684,10.258985],[124.966231,10.25848],[124.965957,10.258499],[124.964833,10.258952],[124.964611,10.259165],[124.965192,10.259844],[124.963733,10.259715]]]},"properties":{"BARANGAY_C":19,"Name":"San Isidro","barangay_n":"San Isidro","descriptio":"Barangay San Isidro","boundary_p":1}},{"type":"Feature","geometry":{"type":"Polygon","coordinates":[[[124.972289,10.280147],[124.972483,10.28037],[124.972657,10.280462],[124.972862,10.280586],[124.973146,10.280895],[124.973396,10.281139],[124.973673,10.281285],[124.97389,10.281548],[124.974269,10.280881],[124.975877,10.281748],[124.976632,10.281843],[124.9768,10.282194],[124.977067,10.282259],[124.977356,10.281478],[124.977552,10.281459],[124.978052,10.281543],[124.978582,10.281812],[124.97877,10.281913],[124.979079,10.282326],[124.97845,10.282915],[124.979865,10.282842],[124.98014,10.282298],[124.980286,10.282337],[124.98149,10.282317],[124.981785,10.282303],[124.981897,10.282312],[124.982228,10.282287],[124.981894,10.284153],[124.981462,10.285312],[124.981437,10.285396],[124.981521,10.285607],[124.981417,10.28615],[124.981239,10.286362],[124.981247,10.286444],[124.981153,10.28704],[124.980707,10.288866],[124.981035,10.289779],[124.981093,10.290394],[124.980849,10.290347],[124.980465,10.290305],[124.980254,10.290187],[124.980231,10.290347],[124.979949,10.290248],[124.979729,10.290169],[124.979541,10.289766],[124.978791,10.289245],[124.97858,10.28918],[124.978341,10.289114],[124.978102,10.289109],[124.977559,10.289105],[124.977605,10.288758],[124.977479,10.288397],[124.977005,10.288097],[124.976743,10.287848],[124.976612,10.28752],[124.975824,10.286869],[124.975749,10.285884],[124.976119,10.285837],[124.97618,10.285219],[124.976049,10.285073],[124.975946,10.284923],[124.976518,10.284553],[124.976265,10.284441],[124.975477,10.284333],[124.974835,10.283944],[124.974675,10.283845],[124.974474,10.283691],[124.973714,10.283316],[124.973213,10.28347],[124.972871,10.282612],[124.97288,10.282355],[124.972913,10.282003],[124.972918,10.28153],[124.972758,10.281225],[124.972575,10.281005],[124.9725,10.280747],[124.972294,10.280531],[124.972289,10.280147]]]},"properties":{"BARANGAY_C":20,"Name":"San Miguel","barangay_n":"San Miguel","descriptio":"Barangay San Miguel","boundary_p":1}},{"type":"Feature","geometry":{"type":"Polygon","coordinates":[[[124.962345,10.319636],[124.96219,10.319236],[124.962695,10.318649],[124.962808,10.318457],[124.962989,10.318322],[124.963231,10.318477],[124.963324,10.318652],[124.963386,10.318869],[124.963725,10.318897],[124.963976,10.319027],[124.964176,10.318511],[124.964064,10.318271],[124.963925,10.317899],[124.965082,10.317588],[124.965347,10.317913],[124.965646,10.318076],[124.966036,10.317789],[124.966219,10.316965],[124.966349,10.316801],[124.966352,10.316612],[124.966741,10.315851],[124.967116,10.315659],[124.967672,10.315264],[124.968101,10.315236],[124.969774,10.314781],[124.969726,10.314502],[124.969985,10.314564],[124.970042,10.31448],[124.969929,10.314409],[124.970118,10.314245],[124.970451,10.314474],[124.970541,10.314401],[124.970773,10.314595],[124.970603,10.314722],[124.970595,10.314849],[124.971089,10.31499],[124.971204,10.315035],[124.971187,10.315126],[124.971283,10.315185],[124.971419,10.315154],[124.971413,10.315066],[124.97195,10.315092],[124.971898,10.315021],[124.971945,10.314958],[124.972423,10.314982],[124.972525,10.314968],[124.972588,10.315073],[124.972652,10.315042],[124.972735,10.315009],[124.972824,10.314992],[124.973049,10.315054],[124.973168,10.31513],[124.973196,10.314746],[124.973419,10.314625],[124.973526,10.314504],[124.974206,10.314803],[124.975047,10.314743],[124.976074,10.315305],[124.976127,10.316227],[124.976641,10.317956],[124.976655,10.319955],[124.975683,10.322853],[124.975308,10.322741],[124.974537,10.3226],[124.974457,10.322592],[124.9741,10.322568],[124.974034,10.322571],[124.973873,10.322804],[124.973831,10.322853],[124.973795,10.322912],[124.973747,10.322953],[124.973571,10.322949],[124.973768,10.322565],[124.973585,10.322526],[124.973442,10.322481],[124.973466,10.322182],[124.973189,10.322076],[124.973018,10.321972],[124.972475,10.321776],[124.972377,10.321824],[124.972424,10.322079],[124.972511,10.322151],[124.972646,10.322196],[124.973091,10.322426],[124.972979,10.322689],[124.972584,10.32251],[124.972251,10.322319],[124.971996,10.322185],[124.971803,10.322062],[124.971464,10.322331],[124.970473,10.321334],[124.970017,10.320802],[124.969703,10.320458],[124.969342,10.320802],[124.968614,10.320497],[124.96851,10.320511],[124.968382,10.320581],[124.968079,10.320609],[124.967964,10.320553],[124.967707,10.320377],[124.967654,10.320424],[124.967239,10.320617],[124.96701,10.320735],[124.966993,10.320665],[124.966853,10.320704],[124.966696,10.320253],[124.966654,10.320049],[124.966223,10.319976],[124.96624,10.31989],[124.965669,10.320147],[124.965417,10.320382],[124.965114,10.320704],[124.964619,10.320948],[124.964347,10.320785],[124.964039,10.320538],[124.963577,10.320179],[124.963323,10.320118],[124.962345,10.319636]]]},"properties":{"BARANGAY_C":21,"Name":"Tinago","barangay_n":"Tinago","descriptio":"Barangay Tinago","boundary_p":1}},{"type":"Feature","geometry":{"type":"Polygon","coordinates":[[[124.938227,10.308436],[124.938859,10.307794],[124.939168,10.307359],[124.939173,10.306919],[124.938508,10.306624],[124.938541,10.306352],[124.940329,10.305842],[124.941598,10.306605],[124.942525,10.306577],[124.9429,10.306254],[124.942764,10.304774],[124.943157,10.303459],[124.944183,10.302948],[124.944094,10.302087],[124.943415,10.301647],[124.944323,10.299732],[124.944536,10.299894],[124.945061,10.300153],[124.944967,10.300357],[124.944653,10.300633],[124.945334,10.300952],[124.946486,10.301567],[124.946163,10.302424],[124.946725,10.302672],[124.947259,10.303342],[124.947601,10.303688],[124.947498,10.304592],[124.947151,10.304737],[124.947118,10.305275],[124.94717,10.305453],[124.946866,10.305603],[124.946945,10.30579],[124.947104,10.305809],[124.948031,10.306029],[124.948111,10.305814],[124.94813,10.305556],[124.948209,10.305641],[124.948336,10.305683],[124.948443,10.305669],[124.948532,10.305753],[124.948565,10.305945],[124.948977,10.306062],[124.948738,10.306427],[124.948584,10.307546],[124.948991,10.307527],[124.949296,10.307523],[124.949703,10.307939],[124.949703,10.307939],[124.949612,10.308647],[124.949612,10.308647],[124.949612,10.308647],[124.949612,10.308648],[124.949064,10.309676],[124.949064,10.309676],[124.948639,10.309372],[124.948639,10.309372],[124.948639,10.309372],[124.948031,10.310037],[124.947678,10.310502],[124.947678,10.310502],[124.947441,10.310679],[124.947441,10.310679],[124.94761,10.311043],[124.947948,10.311561],[124.947948,10.311561],[124.947948,10.311561],[124.948046,10.311546],[124.94818,10.311937],[124.948184,10.312243],[124.947096,10.31338],[124.94651,10.313103],[124.945756,10.313776],[124.946033,10.314236],[124.946054,10.314597],[124.946085,10.315212],[124.944764,10.316695],[124.944164,10.316447],[124.94342,10.316372],[124.943218,10.316325],[124.942769,10.3161],[124.942619,10.315632],[124.942403,10.315641],[124.942099,10.314967],[124.941828,10.314124],[124.941921,10.313815],[124.942029,10.313165],[124.941823,10.313122],[124.940994,10.313319],[124.940962,10.313637],[124.940723,10.313567],[124.940456,10.313811],[124.940573,10.312743],[124.939894,10.312392],[124.939369,10.311521],[124.938892,10.310566],[124.938723,10.309307],[124.938227,10.308436]]]},"properties":{"BARANGAY_C":22,"Name":"Biasong","barangay_n":"Biasong","descriptio":"Barangay Biasong","boundary_p":1}},{"type":"Feature","geometry":{"type":"Polygon","coordinates":[[[124.975308,10.322741],[124.975683,10.322853],[124.975193,10.323953],[124.973611,10.325971],[124.972228,10.326013],[124.968631,10.325179],[124.967914,10.324801],[124.966786,10.325431],[124.96524,10.325165],[124.96505,10.325241],[124.96458,10.325451],[124.963969,10.32456],[124.961721,10.324241],[124.961592,10.323788],[124.960685,10.323306],[124.959238,10.323376],[124.958751,10.323987],[124.95802,10.323732],[124.957833,10.323393],[124.957348,10.323116],[124.957774,10.322892],[124.958661,10.322581],[124.959005,10.322567],[124.959411,10.322598],[124.96026,10.322626],[124.960853,10.322581],[124.961427,10.322374],[124.961716,10.322285],[124.961777,10.322366],[124.961973,10.322374],[124.962088,10.32236],[124.962278,10.322287],[124.962261,10.322136],[124.96218,10.322119],[124.962001,10.322147],[124.96166,10.321977],[124.961746,10.32173],[124.96185,10.321288],[124.961917,10.321142],[124.96199,10.321008],[124.962152,10.320697],[124.962345,10.319636],[124.963323,10.320118],[124.963577,10.320179],[124.964039,10.320538],[124.964347,10.320785],[124.964619,10.320948],[124.965114,10.320704],[124.965417,10.320382],[124.965669,10.320147],[124.96624,10.31989],[124.966223,10.319976],[124.966654,10.320049],[124.966696,10.320253],[124.966853,10.320704],[124.966993,10.320665],[124.96701,10.320735],[124.967239,10.320617],[124.967654,10.320424],[124.967707,10.320377],[124.967964,10.320553],[124.968079,10.320609],[124.968382,10.320581],[124.96851,10.320511],[124.968614,10.320497],[124.969342,10.320802],[124.969703,10.320458],[124.970017,10.320802],[124.970473,10.321334],[124.971464,10.322331],[124.971803,10.322062],[124.971996,10.322185],[124.972251,10.322319],[124.972584,10.32251],[124.972979,10.322689],[124.973091,10.322426],[124.972646,10.322196],[124.972511,10.322151],[124.972424,10.322079],[124.972377,10.321824],[124.972475,10.321776],[124.973018,10.321972],[124.973189,10.322076],[124.973466,10.322182],[124.973442,10.322481],[124.973585,10.322526],[124.973768,10.322565],[124.973571,10.322949],[124.973747,10.322953],[124.973795,10.322912],[124.973831,10.322853],[124.973873,10.322804],[124.974034,10.322571],[124.9741,10.322568],[124.974457,10.322592],[124.974537,10.3226],[124.975308,10.322741]]]},"properties":{"BARANGAY_C":23,"Name":"Higosan","barangay_n":"Higosan","descriptio":"Barangay Higosan","boundary_p":1}},{"type":"Feature","geometry":{"type":"Polygon","coordinates":[[[124.970335,10.255477],[124.970414,10.255386],[124.97038,10.255057],[124.96992,10.254915],[124.969982,10.254614],[124.97034,10.254597],[124.970522,10.254586],[124.970732,10.254432],[124.970834,10.253927],[124.970879,10.253751],[124.970981,10.253808],[124.971379,10.253529],[124.971481,10.253495],[124.971561,10.253421],[124.972163,10.253115],[124.972404,10.253067],[124.972608,10.252937],[124.972932,10.252845],[124.973113,10.252859],[124.973432,10.252845],[124.973863,10.252905],[124.974066,10.252785],[124.974367,10.252507],[124.974516,10.252368],[124.97421,10.251544],[124.974756,10.251488],[124.97533,10.250743],[124.975525,10.250826],[124.975557,10.250405],[124.97577,10.250173],[124.975775,10.249044],[124.975817,10.248872],[124.975969,10.248817],[124.975909,10.24847],[124.975743,10.248359],[124.975724,10.248224],[124.975891,10.248085],[124.97602,10.248071],[124.976141,10.248335],[124.976474,10.248303],[124.976937,10.24846],[124.977317,10.248706],[124.978132,10.248067],[124.978576,10.247789],[124.978822,10.247599],[124.978812,10.247034],[124.979007,10.246914],[124.979553,10.246548],[124.979799,10.246854],[124.979942,10.246895],[124.980539,10.246011],[124.980826,10.245969],[124.980808,10.246108],[124.981271,10.246187],[124.981248,10.246618],[124.981553,10.246594],[124.981748,10.246576],[124.981979,10.24659],[124.981975,10.246428],[124.981942,10.246141],[124.98191,10.245969],[124.982387,10.245891],[124.982341,10.245706],[124.982322,10.245594],[124.983211,10.245446],[124.983308,10.244928],[124.983544,10.24478],[124.984345,10.244016],[124.984554,10.244169],[124.986268,10.248831],[124.986069,10.248862],[124.985957,10.24889],[124.985841,10.24893],[124.985524,10.248941],[124.985356,10.248988],[124.984803,10.249166],[124.983828,10.249026],[124.983726,10.249036],[124.982196,10.249278],[124.982047,10.24939],[124.981841,10.250216],[124.981715,10.250761],[124.981347,10.250901],[124.981025,10.251065],[124.980941,10.250939],[124.979924,10.251358],[124.979892,10.251172],[124.97991,10.251018],[124.97985,10.250911],[124.979719,10.250799],[124.979248,10.251694],[124.978852,10.252207],[124.9788,10.2523],[124.97866,10.25237],[124.978497,10.252464],[124.97832,10.252445],[124.978166,10.25238],[124.978063,10.252356],[124.9777,10.252305],[124.977583,10.252221],[124.977574,10.251881],[124.977341,10.251913],[124.977135,10.251918],[124.977028,10.251825],[124.97693,10.251755],[124.976841,10.252776],[124.976492,10.253382],[124.975825,10.253014],[124.975629,10.253266],[124.975685,10.253583],[124.975703,10.254236],[124.97534,10.25439],[124.975251,10.253909],[124.975181,10.253784],[124.974985,10.253583],[124.974701,10.253555],[124.974272,10.253574],[124.973917,10.253546],[124.973768,10.25355],[124.973339,10.253532],[124.973325,10.254068],[124.97305,10.254152],[124.973026,10.254283],[124.972676,10.254371],[124.972537,10.254698],[124.972243,10.255057],[124.97186,10.255337],[124.971669,10.255416],[124.970946,10.254931],[124.970489,10.255509],[124.970335,10.255477]]]},"properties":{"BARANGAY_C":24,"Name":"Mag-ata","barangay_n":"Mag-ata","descriptio":"Barangay Mag-ata","boundary_p":1}},{"type":"Feature","geometry":{"type":"Polygon","coordinates":[[[124.958179,10.272042],[124.959126,10.27148],[124.959384,10.270969],[124.959562,10.270753],[124.959159,10.270003],[124.959599,10.269586],[124.960134,10.26968],[124.960213,10.269314],[124.960087,10.268967],[124.960387,10.268615],[124.960729,10.268033],[124.961177,10.26808],[124.961174,10.267625],[124.961371,10.267553],[124.962161,10.267434],[124.963732,10.267547],[124.964786,10.267603],[124.964618,10.268705],[124.964271,10.269145],[124.964221,10.26953],[124.964395,10.26975],[124.964761,10.269656],[124.965994,10.271948],[124.966219,10.27223],[124.966603,10.273101],[124.967015,10.274184],[124.96733,10.274808],[124.968516,10.276678],[124.968778,10.276392],[124.969613,10.276612],[124.970255,10.277048],[124.970583,10.27874],[124.971347,10.279172],[124.971863,10.279598],[124.972289,10.280147],[124.972294,10.280531],[124.9725,10.280747],[124.972575,10.281005],[124.972758,10.281225],[124.972918,10.28153],[124.972913,10.282003],[124.97288,10.282355],[124.972871,10.282612],[124.973213,10.28347],[124.973714,10.283316],[124.974474,10.283691],[124.974675,10.283845],[124.974835,10.283944],[124.975477,10.284333],[124.976265,10.284441],[124.976518,10.284553],[124.975946,10.284923],[124.976049,10.285073],[124.97618,10.285219],[124.976119,10.285837],[124.975749,10.285884],[124.975824,10.286869],[124.976612,10.28752],[124.976743,10.287848],[124.977005,10.288097],[124.977479,10.288397],[124.977605,10.288758],[124.977559,10.289105],[124.978102,10.289109],[124.978341,10.289114],[124.97858,10.28918],[124.978791,10.289245],[124.979541,10.289766],[124.979729,10.290169],[124.979949,10.290248],[124.980231,10.290347],[124.980254,10.290187],[124.980465,10.290305],[124.980849,10.290347],[124.981093,10.290394],[124.980615,10.291505],[124.981149,10.292606],[124.981196,10.292874],[124.981557,10.294331],[124.981679,10.295124],[124.981599,10.297463],[124.981909,10.299671],[124.982698,10.302081],[124.982335,10.302083],[124.982219,10.30201],[124.981989,10.30195],[124.981773,10.301947],[124.98146,10.301533],[124.980637,10.301805],[124.980049,10.301689],[124.98026,10.301348],[124.979773,10.30141],[124.979503,10.300746],[124.979561,10.300336],[124.979877,10.300182],[124.979596,10.299481],[124.979369,10.299068],[124.979077,10.298495],[124.979393,10.298193],[124.979444,10.297797],[124.979053,10.297726],[124.977986,10.297518],[124.977258,10.297121],[124.976886,10.296905],[124.976591,10.296865],[124.976563,10.296559],[124.975761,10.296508],[124.97578,10.295957],[124.976225,10.295695],[124.975884,10.295367],[124.975746,10.295262],[124.975707,10.295032],[124.975656,10.294781],[124.975262,10.294458],[124.974384,10.294762],[124.974049,10.294772],[124.974303,10.294397],[124.973917,10.293887],[124.973753,10.293628],[124.973508,10.293256],[124.973334,10.293058],[124.973007,10.293008],[124.972998,10.292461],[124.97242,10.291489],[124.972246,10.291015],[124.971516,10.290663],[124.971113,10.290246],[124.970859,10.289956],[124.970411,10.289302],[124.969842,10.289308],[124.96978,10.28884],[124.969749,10.288431],[124.96976,10.288293],[124.969704,10.288164],[124.969602,10.288023],[124.969619,10.287766],[124.969735,10.287487],[124.969574,10.287017],[124.969453,10.286887],[124.969087,10.286766],[124.968915,10.286484],[124.968805,10.2866],[124.968701,10.286411],[124.968737,10.286171],[124.968717,10.286033],[124.96876,10.285771],[124.968591,10.285487],[124.968729,10.28527],[124.96843,10.284937],[124.96834,10.284779],[124.968199,10.284841],[124.968097,10.28496],[124.967847,10.285025],[124.96761,10.284965],[124.967503,10.28492],[124.967289,10.284805],[124.967148,10.284777],[124.96697,10.284681],[124.966925,10.2845],[124.966725,10.284244],[124.966488,10.283793],[124.965908,10.283111],[124.965626,10.282793],[124.965384,10.282638],[124.964998,10.282643],[124.964837,10.282688],[124.964721,10.282677],[124.964589,10.282669],[124.964431,10.282677],[124.964245,10.282626],[124.964149,10.282567],[124.963822,10.282176],[124.963608,10.282009],[124.963822,10.28135],[124.963386,10.280333],[124.96258,10.279383],[124.963104,10.279155],[124.962932,10.279059],[124.962833,10.27887],[124.96287,10.278769],[124.962729,10.278202],[124.962729,10.278202],[124.962729,10.278202],[124.962092,10.278439],[124.961565,10.278139],[124.96148,10.27806],[124.961542,10.277812],[124.960663,10.277209],[124.960787,10.277091],[124.960793,10.276972],[124.960759,10.276606],[124.960376,10.276144],[124.960376,10.276144],[124.960376,10.276144],[124.959953,10.276364],[124.959271,10.276899],[124.958989,10.27651],[124.958957,10.276003],[124.958751,10.275548],[124.958845,10.274766],[124.959496,10.274156],[124.959182,10.273744],[124.958905,10.273439],[124.958573,10.272637],[124.958179,10.272042]]]},"properties":{"BARANGAY_C":25,"Name":"San Antonio (Calayugan)","barangay_n":"San Antonio (Calayugan)","descriptio":"Barangay San Antonio (Calayugan)","boundary_p":1}},{"type":"Feature","geometry":{"type":"Polygon","coordinates":[[[124.965007,10.266782],[124.966371,10.265948],[124.966943,10.265862],[124.967857,10.265559],[124.968884,10.265413],[124.969887,10.265261],[124.97019,10.265228],[124.971203,10.265124],[124.972415,10.265233],[124.974999,10.264239],[124.975183,10.263931],[124.97621,10.263709],[124.976329,10.263941],[124.977417,10.26351],[124.978335,10.263468],[124.979178,10.263889],[124.979277,10.263979],[124.979429,10.264121],[124.980404,10.26423],[124.980782,10.264282],[124.980976,10.264386],[124.980939,10.264764],[124.981497,10.26466],[124.981601,10.264736],[124.98179,10.26475],[124.982311,10.26476],[124.98224,10.264509],[124.983296,10.264305],[124.983755,10.264239],[124.98397,10.264209],[124.984095,10.264221],[124.984259,10.26429],[124.984493,10.269058],[124.98465,10.270122],[124.984284,10.270145],[124.9842,10.270178],[124.984036,10.270197],[124.983754,10.270361],[124.983656,10.270258],[124.983651,10.270047],[124.983768,10.2697],[124.982817,10.269948],[124.982741,10.269859],[124.981466,10.270197],[124.981536,10.270103],[124.981274,10.269958],[124.981255,10.270047],[124.9802,10.269803],[124.97974,10.2697],[124.978967,10.269653],[124.978793,10.269784],[124.976725,10.26939],[124.976561,10.269733],[124.975858,10.269794],[124.975159,10.270028],[124.974638,10.269873],[124.974296,10.269615],[124.974245,10.269222],[124.974155,10.268978],[124.973612,10.268523],[124.97386,10.268026],[124.973307,10.267496],[124.97235,10.267918],[124.972392,10.268031],[124.971684,10.268157],[124.971478,10.268349],[124.971337,10.268401],[124.970582,10.26865],[124.970202,10.267318],[124.969959,10.26743],[124.969658,10.267473],[124.969677,10.267637],[124.969161,10.267716],[124.968317,10.267951],[124.967787,10.267426],[124.967666,10.267398],[124.967229,10.267435],[124.966826,10.267454],[124.965898,10.267459],[124.96541,10.267416],[124.965332,10.26718],[124.965007,10.266782]]]},"properties":{"BARANGAY_C":26,"Name":"San Roque","barangay_n":"San Roque","descriptio":"Barangay San Roque","boundary_p":1}},{"type":"Feature","geometry":{"type":"Polygon","coordinates":[[[124.950059,10.307925],[124.950059,10.307925],[124.950059,10.307925],[124.950279,10.308492],[124.950202,10.308959],[124.950641,10.309203],[124.95078,10.309319],[124.95263,10.310275],[124.952882,10.310482],[124.953558,10.311792],[124.953746,10.31189],[124.954012,10.312254],[124.951842,10.313457],[124.951758,10.314343],[124.951089,10.31448],[124.950757,10.315826],[124.951426,10.316618],[124.951566,10.317568],[124.950863,10.319563],[124.95137,10.320951],[124.95122,10.320849],[124.948963,10.320759],[124.947701,10.320485],[124.94725,10.32096],[124.946739,10.319981],[124.946622,10.31978],[124.946491,10.319204],[124.946103,10.319462],[124.9457,10.319036],[124.946018,10.318347],[124.945747,10.31801],[124.945564,10.317921],[124.945368,10.31699],[124.944436,10.317299],[124.944764,10.316695],[124.946085,10.315212],[124.946054,10.314597],[124.946033,10.314236],[124.945756,10.313776],[124.94651,10.313103],[124.947096,10.31338],[124.948184,10.312243],[124.94818,10.311935],[124.948046,10.311546],[124.948046,10.311546],[124.94818,10.311935],[124.94818,10.311937],[124.948046,10.311546],[124.947948,10.311561],[124.94761,10.311043],[124.947441,10.310679],[124.947441,10.310679],[124.94761,10.311043],[124.947948,10.311561],[124.947948,10.311561],[124.94761,10.311043],[124.947441,10.310679],[124.947441,10.310679],[124.947678,10.310502],[124.948031,10.310037],[124.947678,10.310502],[124.947678,10.310502],[124.947678,10.310502],[124.948031,10.310037],[124.948639,10.309372],[124.948639,10.309372],[124.948031,10.310036],[124.948639,10.309372],[124.949064,10.309676],[124.949612,10.308648],[124.949612,10.308647],[124.949612,10.308648],[124.949612,10.308647],[124.949703,10.307939],[124.950059,10.307925],[124.950059,10.307925],[124.950059,10.307925]]]},"properties":{"BARANGAY_C":27,"Name":"Luan","barangay_n":"Luan","descriptio":"Barangay Luan","boundary_p":8}},{"type":"Feature","geometry":{"type":"Polygon","coordinates":[[[124.958989,10.27651],[124.95913,10.276705],[124.959271,10.276899],[124.959953,10.276364],[124.960376,10.276144],[124.960376,10.276144],[124.960376,10.276144],[124.960567,10.276375],[124.960759,10.276606],[124.960793,10.276972],[124.960787,10.277091],[124.960725,10.27715],[124.960663,10.277209],[124.961542,10.277812],[124.96148,10.27806],[124.961523,10.278099],[124.961565,10.278139],[124.961829,10.278289],[124.962092,10.278439],[124.962092,10.278439],[124.962092,10.278439],[124.962729,10.278202],[124.96287,10.278769],[124.962833,10.27887],[124.962932,10.279059],[124.963104,10.279155],[124.96258,10.279383],[124.963386,10.280333],[124.961819,10.283705],[124.961088,10.285101],[124.960066,10.286617],[124.958401,10.289184],[124.956639,10.291826],[124.956175,10.29295],[124.956088,10.293063],[124.955984,10.293158],[124.95464,10.293243],[124.954501,10.293268],[124.95473,10.292801],[124.953546,10.292409],[124.953631,10.292062],[124.953822,10.291547],[124.953652,10.291607],[124.953481,10.291668],[124.953302,10.29171],[124.953123,10.291752],[124.953123,10.291752],[124.953123,10.291752],[124.953123,10.291752],[124.953123,10.291752],[124.953123,10.291752],[124.953123,10.291752],[124.952875,10.291673],[124.952764,10.291631],[124.952653,10.291589],[124.951351,10.290608],[124.950717,10.290301],[124.950007,10.289805],[124.949322,10.287979],[124.947892,10.285666],[124.946967,10.283971],[124.946984,10.283416],[124.947142,10.282834],[124.947266,10.282636],[124.947119,10.282535],[124.947063,10.282383],[124.947226,10.281983],[124.946978,10.281836],[124.947125,10.281684],[124.947339,10.281684],[124.947649,10.281735],[124.947852,10.28165],[124.947852,10.28165],[124.947852,10.28165],[124.947965,10.281678],[124.948078,10.281706],[124.948726,10.281594],[124.949019,10.281137],[124.949244,10.281036],[124.949368,10.281036],[124.949565,10.280985],[124.949701,10.280737],[124.950045,10.280692],[124.950045,10.280692],[124.950045,10.280692],[124.950129,10.280827],[124.950129,10.280827],[124.950129,10.280827],[124.950366,10.280805],[124.950614,10.280551],[124.950614,10.280551],[124.950614,10.280551],[124.950913,10.280709],[124.951211,10.280867],[124.951521,10.280805],[124.952251,10.280363],[124.952513,10.280326],[124.952901,10.280302],[124.953224,10.280313],[124.953262,10.280201],[124.953341,10.280073],[124.95345,10.279938],[124.953681,10.27979],[124.953785,10.279805],[124.953967,10.279875],[124.954131,10.279666],[124.954018,10.279503],[124.954136,10.279322],[124.954334,10.279232],[124.954424,10.279114],[124.954379,10.278905],[124.954672,10.278533],[124.955038,10.278533],[124.954909,10.278376],[124.954993,10.2781],[124.95514,10.277936],[124.955236,10.277767],[124.955236,10.277564],[124.955376,10.277412],[124.955546,10.277243],[124.955675,10.277125],[124.955996,10.276893],[124.95616,10.277434],[124.956526,10.277643],[124.957727,10.277186],[124.958426,10.276826],[124.958989,10.27651],[124.958989,10.27651],[124.958989,10.27651]]]},"properties":{"BARANGAY_C":28,"Name":"Mapgap","barangay_n":"Mapgap","descriptio":"Barangay Mapgap","boundary_p":8}},{"type":"Feature","geometry":{"type":"Polygon","coordinates":[[[124.969253,10.306517],[124.969114,10.306254],[124.969142,10.306141],[124.969198,10.30606],[124.969271,10.305926],[124.969369,10.305724],[124.969451,10.305015],[124.968607,10.304703],[124.968469,10.304039],[124.968385,10.303049],[124.968887,10.303066],[124.969047,10.303091],[124.969546,10.303369],[124.969779,10.303139],[124.969497,10.302593],[124.969999,10.301813],[124.970021,10.301718],[124.970041,10.30167],[124.969531,10.301407],[124.969791,10.30116],[124.969704,10.300027],[124.969357,10.299419],[124.969247,10.299304],[124.969189,10.299161],[124.969275,10.298996],[124.96904,10.298606],[124.969104,10.298559],[124.969679,10.298051],[124.969766,10.297793],[124.969917,10.297664],[124.970425,10.298331],[124.97063,10.298724],[124.971011,10.298926],[124.970613,10.299792],[124.971025,10.299935],[124.971227,10.299988],[124.971277,10.301067],[124.971221,10.301286],[124.971367,10.301527],[124.972093,10.301278],[124.972197,10.301735],[124.972385,10.301987],[124.972732,10.302382],[124.973041,10.302864],[124.973099,10.302816],[124.973614,10.303478],[124.973575,10.30359],[124.973976,10.304431],[124.974348,10.305194],[124.974461,10.305166],[124.974528,10.305138],[124.975122,10.305665],[124.975111,10.305903],[124.975164,10.306108],[124.975274,10.306273],[124.975313,10.30668],[124.975366,10.306694],[124.975442,10.306761],[124.975503,10.306733],[124.975571,10.306758],[124.975644,10.306825],[124.975826,10.306974],[124.976255,10.307451],[124.976475,10.307636],[124.976839,10.307952],[124.977019,10.30802],[124.977137,10.308003],[124.977218,10.308073],[124.977577,10.308123],[124.977865,10.308589],[124.977341,10.30883],[124.97777,10.309113],[124.978227,10.308883],[124.978317,10.30897],[124.978373,10.309009],[124.978398,10.30906],[124.978446,10.309177],[124.978667,10.309618],[124.978709,10.309904],[124.978317,10.310204],[124.977106,10.310588],[124.977053,10.310699],[124.97657,10.310349],[124.97668,10.310035],[124.976513,10.310018],[124.976434,10.309982],[124.976519,10.309801],[124.976485,10.309586],[124.976544,10.309255],[124.976131,10.308857],[124.976103,10.308656],[124.976171,10.308515],[124.975987,10.308549],[124.975846,10.308693],[124.975654,10.308693],[124.975448,10.308475],[124.975465,10.30821],[124.975286,10.308201],[124.975029,10.308487],[124.974504,10.308467],[124.974215,10.308506],[124.974052,10.308586],[124.973712,10.308261],[124.973458,10.308032],[124.973376,10.307789],[124.973122,10.307825],[124.972932,10.307899],[124.972763,10.307854],[124.972398,10.307571],[124.972237,10.307102],[124.971867,10.307212],[124.971802,10.307068],[124.971339,10.307503],[124.971262,10.307503],[124.970872,10.307255],[124.969682,10.306653],[124.969578,10.306735],[124.969253,10.306517]]]},"properties":{"BARANGAY_C":29,"Name":"San Agustin (Lotaw)","barangay_n":"San Agustin (Lotaw)","descriptio":"Barangay San Agustin (Lotaw)","boundary_p":1}}]}