{
"type": "FeatureCollection",
"name": "Boundary_Municipal_WGS84",
"crs": { "type": "name", "properties": { "name": "urn:ogc:def:crs:OGC:1.3:CRS84" } },
"features": [
{ "type": "Feature", "properties": { "Name": null, "descriptio": null, "timestamp": null, "begin": null, "end": null, "altitudeMo": null, "tessellate": 1, "extrude": 1, "visibility": -1, "drawOrder": null, "icon": null }, "geometry": { "type": "Polygon", "coordinates": [ [ [ 124.912700717259796, 10.287798048905451 ], [ 124.926621544996664, 10.281883849080019 ], [ 124.927080169017316, 10.282357351118506 ], [ 124.927162201499144, 10.28293524936781 ], [ 124.926554438823246, 10.283982926232179 ], [ 124.926714771349182, 10.284273739031686 ], [ 124.926968318223814, 10.284225269022718 ], [ 124.927837086320366, 10.283419935607915 ], [ 124.928269606970147, 10.283226058081842 ], [ 124.928679763066754, 10.284680123766737 ], [ 124.929020077293387, 10.284838333323391 ], [ 124.928280572396375, 10.286261024723178 ], [ 124.928252455140608, 10.286497202334038 ], [ 124.928196220505498, 10.286941441188103 ], [ 124.928109054879883, 10.287188865601093 ], [ 124.927850366344032, 10.287138257255254 ], [ 124.927552313791296, 10.287450350224383 ], [ 124.927639481383864, 10.287649976059873 ], [ 124.928443666461717, 10.288068906470487 ], [ 124.928640494909601, 10.288156066361431 ], [ 124.929762414678109, 10.288111075331289 ], [ 124.92988613695735, 10.288515950494292 ], [ 124.929751172074361, 10.289182308995013 ], [ 124.93004641592789, 10.289581560144537 ], [ 124.930546924720048, 10.290295713728495 ], [ 124.930771873467606, 10.290838358657981 ], [ 124.930755005572436, 10.291538456291949 ], [ 124.93099401204428, 10.291757762930052 ], [ 124.931390481710054, 10.292145767095951 ], [ 124.932017525107497, 10.293377261305157 ], [ 124.932242474499375, 10.294066111349355 ], [ 124.932408374395195, 10.29451034924729 ], [ 124.932020346234893, 10.295488800529816 ], [ 124.931297706106349, 10.29550005019772 ], [ 124.931081199272654, 10.2964166447314 ], [ 124.930906866240647, 10.296506617862134 ], [ 124.931055894095124, 10.296709055068703 ], [ 124.931126191442232, 10.297074567550178 ], [ 124.93122460900382, 10.297875883615935 ], [ 124.931441121050909, 10.298142988177798 ], [ 124.931528288879676, 10.298396035114409 ], [ 124.931618267893896, 10.298502876924591 ], [ 124.931876956652587, 10.298604094732386 ], [ 124.932011924628981, 10.298640645427891 ], [ 124.932056912179064, 10.298249827716679 ], [ 124.932700824339264, 10.298978038869512 ], [ 124.932849852887529, 10.299337927737787 ], [ 124.933032621977432, 10.299377289863603 ], [ 124.933125412895492, 10.299501001482543 ], [ 124.933187273639632, 10.299613466687866 ], [ 124.933333489119605, 10.299692191886997 ], [ 124.933451587233975, 10.299981789968685 ], [ 124.933454399608507, 10.300105501976423 ], [ 124.933611862022417, 10.30009706638565 ], [ 124.93374964158042, 10.300077384332704 ], [ 124.933912727603797, 10.300057702170403 ], [ 124.934075813887247, 10.300097064381177 ], [ 124.934115180701667, 10.300369792982201 ], [ 124.934177041421066, 10.300476634913879 ], [ 124.934480719674156, 10.300628461989904 ], [ 124.934652243601874, 10.3011570489703 ], [ 124.936468683947979, 10.300816833067246 ], [ 124.936359024605224, 10.301272318705047 ], [ 124.936209999848117, 10.301772790702316 ], [ 124.936136893161304, 10.301972417232244 ], [ 124.936145329430289, 10.302149550315331 ], [ 124.936100343206718, 10.302841213167323 ], [ 124.93594007318913, 10.303808416926813 ], [ 124.935864156655981, 10.304457905361406 ], [ 124.935973818179235, 10.304497267802967 ], [ 124.936238130088483, 10.304483208476478 ], [ 124.936145342863654, 10.305197364631473 ], [ 124.936302806603621, 10.305489774180915 ], [ 124.93605255516799, 10.30580467858751 ], [ 124.9356870191328, 10.306212367508099 ], [ 124.935852918224995, 10.306473849016218 ], [ 124.936294375292334, 10.30643729582898 ], [ 124.936359049155413, 10.306842171253201 ], [ 124.936673974503677, 10.30694338881767 ], [ 124.936890485460381, 10.30696306933948 ], [ 124.937022641656625, 10.307010866594247 ], [ 124.937174480498086, 10.307022112485175 ], [ 124.937331943060613, 10.307047416535895 ], [ 124.937795895470032, 10.307171126550735 ], [ 124.937798708650774, 10.307477594953262 ], [ 124.938012408211975, 10.30759568277626 ], [ 124.93821204998936, 10.308023050711752 ], [ 124.93822684444342, 10.308435706239123 ], [ 124.938723166449492, 10.309306542340064 ], [ 124.938891732890411, 10.310565979722368 ], [ 124.939369326281465, 10.311521090574917 ], [ 124.939893741769524, 10.312391926556199 ], [ 124.94057266911075, 10.312743068075106 ], [ 124.940455617649192, 10.313810547727106 ], [ 124.940722504645152, 10.313567086416432 ], [ 124.940961299543829, 10.313637314274585 ], [ 124.940994073867117, 10.313318943159523 ], [ 124.941822830690313, 10.313122298679335 ], [ 124.942028849737127, 10.313164435122774 ], [ 124.94192116093113, 10.313815223313187 ], [ 124.941827517357666, 10.314124230839468 ], [ 124.942099091392905, 10.314966976359202 ], [ 124.942403440412477, 10.315641172398525 ], [ 124.942618823725738, 10.315631807614418 ], [ 124.942768657690735, 10.316099999574758 ], [ 124.943218154378769, 10.316324730081979 ], [ 124.943419491199421, 10.316371548471649 ], [ 124.944163968776863, 10.316446456067633 ], [ 124.944763297466793, 10.316694595556795 ], [ 124.944435542853995, 10.317298565440517 ], [ 124.945367308610045, 10.316989554286584 ], [ 124.945563967089157, 10.31792125672728 ], [ 124.945746575108288, 10.318010212532695 ], [ 124.946018146912465, 10.318347310035994 ], [ 124.945699757166054, 10.319035554549874 ], [ 124.946102432274344, 10.319461608081811 ], [ 124.946491057624485, 10.319204100464418 ], [ 124.946622163077947, 10.319779976806915 ], [ 124.946739220137502, 10.319981299122452 ], [ 124.947249589362102, 10.320959819468317 ], [ 124.947700461518849, 10.320485034072073 ], [ 124.948962478906282, 10.320759197865959 ], [ 124.951219835618943, 10.320849325932022 ], [ 124.9513700760875, 10.320950730349223 ], [ 124.952838672092028, 10.320905655072856 ], [ 124.953045251987916, 10.320875608232715 ], [ 124.953954202687285, 10.320552610379531 ], [ 124.954036834433353, 10.320492518130067 ], [ 124.95453263061404, 10.321423940306827 ], [ 124.955584312317271, 10.321776975618436 ], [ 124.955929866503922, 10.322261465000338 ], [ 124.956008742713749, 10.322306533577732 ], [ 124.955103550818961, 10.323264252023939 ], [ 124.955971188994695, 10.323729960429665 ], [ 124.956478247438554, 10.32336189539604 ], [ 124.956602194891573, 10.323234199589153 ], [ 124.956820042573, 10.323155328037782 ], [ 124.957079206143931, 10.323050166104895 ], [ 124.957348040335063, 10.323115972057833 ], [ 124.957832387999545, 10.323393120326081 ], [ 124.958019968752751, 10.323731858849516 ], [ 124.95875068907408, 10.323986610061885 ], [ 124.959237832509316, 10.32337631724879 ], [ 124.960685272139528, 10.323306323515718 ], [ 124.961592373956748, 10.323787833353693 ], [ 124.961721161718202, 10.324241351575433 ], [ 124.963969314519971, 10.324560484685096 ], [ 124.964579650959266, 10.325450722609036 ], [ 124.965049998018827, 10.325240758174242 ], [ 124.965240376632039, 10.325165170886569 ], [ 124.966785806906231, 10.325431116564371 ], [ 124.967914079353577, 10.324801224485368 ], [ 124.968630801763936, 10.325179153697233 ], [ 124.972228407602827, 10.326013388709635 ], [ 124.973611454469761, 10.32597139024034 ], [ 124.975193270623436, 10.323952944880629 ], [ 124.975683211582393, 10.322852739801283 ], [ 124.976654918900991, 10.319955265825795 ], [ 124.976640803710623, 10.317955825696062 ], [ 124.976127324412218, 10.316226506105412 ], [ 124.976073716159732, 10.315304718569779 ], [ 124.976096462062046, 10.314847196352078 ], [ 124.976095050789169, 10.314170560567341 ], [ 124.976314738844039, 10.313083436141477 ], [ 124.976951035436031, 10.31089993604178 ], [ 124.977052771118338, 10.310699302229015 ], [ 124.977105693344342, 10.310587510491541 ], [ 124.978316803862768, 10.310203452 ], [ 124.978709292608514, 10.309903496301493 ], [ 124.980370280270421, 10.309474878012308 ], [ 124.980982415754198, 10.30902768229295 ], [ 124.981259133725331, 10.308641977071668 ], [ 124.981426841471134, 10.308382045373387 ], [ 124.981859232103432, 10.307899377527795 ], [ 124.982246093556711, 10.307028636912506 ], [ 124.982447261059008, 10.30647299487625 ], [ 124.982572461926281, 10.30583576535202 ], [ 124.982740567084505, 10.304611595702932 ], [ 124.982796127461725, 10.302899306329271 ], [ 124.982697649052426, 10.302080615217003 ], [ 124.98190891764628, 10.299670303049858 ], [ 124.981599509269827, 10.297462474398385 ], [ 124.981679192560819, 10.295123393032286 ], [ 124.981557304755469, 10.294331199786962 ], [ 124.981196333244029, 10.292873377305646 ], [ 124.981149453484306, 10.292606187893288 ], [ 124.980615032782964, 10.291504618982151 ], [ 124.98109318944519, 10.290393670627243 ], [ 124.981035467697524, 10.289779183619345 ], [ 124.980707081594105, 10.288865671850177 ], [ 124.981153336392012, 10.287040046800776 ], [ 124.981247357697953, 10.286443666820574 ], [ 124.981238937286491, 10.286362278585573 ], [ 124.981417160818296, 10.286150387662047 ], [ 124.98152100575156, 10.285606629367178 ], [ 124.981436804291562, 10.285396142822044 ], [ 124.981462064081327, 10.28531194794974 ], [ 124.981894288391402, 10.28415286484424 ], [ 124.982228275635251, 10.282286546154516 ], [ 124.982129611294454, 10.281403405205412 ], [ 124.982162434522223, 10.281047046004682 ], [ 124.982199943027695, 10.279785722331937 ], [ 124.982303105720092, 10.279570030878 ], [ 124.982964284048833, 10.278017990550335 ], [ 124.983233912906002, 10.277247831819295 ], [ 124.983543397589003, 10.275828255425138 ], [ 124.983684073591036, 10.275443762152269 ], [ 124.983820060439754, 10.275082713574536 ], [ 124.983862262984914, 10.274909222799305 ], [ 124.983904465900935, 10.274820132853328 ], [ 124.983937290077534, 10.274679464663304 ], [ 124.984387452366079, 10.27323995969412 ], [ 124.984650037026626, 10.270121816829741 ], [ 124.984492972375264, 10.26905797662892 ], [ 124.984258672575493, 10.264289901371999 ], [ 124.983846025261542, 10.261423565872198 ], [ 124.983822418025142, 10.261286656875017 ], [ 124.983369165816612, 10.260191386036004 ], [ 124.982948962152747, 10.258926158933379 ], [ 124.982953682837802, 10.258779807807787 ], [ 124.983321940367446, 10.257415436243173 ], [ 124.983373874530827, 10.25731629494862 ], [ 124.983623210940806, 10.256648821625426 ], [ 124.984732090058188, 10.255994143335403 ], [ 124.985687057237882, 10.255858307578432 ], [ 124.986372673148793, 10.255408253021695 ], [ 124.986605872049921, 10.25439388701666 ], [ 124.98645661655172, 10.253178981537568 ], [ 124.986545221593488, 10.250397056007603 ], [ 124.986267702698626, 10.248830038181294 ], [ 124.985751815320128, 10.247410483302698 ], [ 124.984553783800294, 10.244168426531239 ], [ 124.984345423989737, 10.244015641201861 ], [ 124.984268146732191, 10.243808871017297 ], [ 124.982797025925549, 10.242464351778818 ], [ 124.982679898572286, 10.242380026637219 ], [ 124.982005244641698, 10.241808489054311 ], [ 124.980528032133009, 10.240046697570433 ], [ 124.980239525363857, 10.23971599588039 ], [ 124.97958510473488, 10.238318133828033 ], [ 124.979377508309852, 10.235273205098121 ], [ 124.978563587177291, 10.233503009765773 ], [ 124.978415814794076, 10.23319107075962 ], [ 124.978068666752208, 10.232407705032452 ], [ 124.97825630990387, 10.231816660698357 ], [ 124.978415796182375, 10.228936495522406 ], [ 124.978174202295364, 10.22893649655899 ], [ 124.977937299233659, 10.228863789839982 ], [ 124.977798911117731, 10.229004515082956 ], [ 124.9776300300462, 10.229025624505026 ], [ 124.977437693165257, 10.229025625330214 ], [ 124.977465840589986, 10.229154622804666 ], [ 124.977095240494265, 10.229208568843662 ], [ 124.977081166376621, 10.22905142637897 ], [ 124.976644890293102, 10.229110063521517 ], [ 124.976644890764916, 10.229217952419273 ], [ 124.976656619064613, 10.229318805034383 ], [ 124.976276636938238, 10.229431386384293 ], [ 124.97548383349131, 10.229384481569531 ], [ 124.974815345786439, 10.229438428886851 ], [ 124.975211750167091, 10.230069342697963 ], [ 124.97488337260873, 10.230636933527212 ], [ 124.973654294031249, 10.230866789062892 ], [ 124.970405674226811, 10.230188979273688 ], [ 124.969901377300758, 10.230416486288403 ], [ 124.969819283665103, 10.230730771692221 ], [ 124.968479958463647, 10.229874702485699 ], [ 124.968123431786523, 10.229926303053912 ], [ 124.96626574069991, 10.230320340045642 ], [ 124.965006167797782, 10.230118640118855 ], [ 124.964769268305076, 10.230862136370861 ], [ 124.964659026659419, 10.230913735882435 ], [ 124.963791165549026, 10.23101224686217 ], [ 124.962797816655893, 10.231180534352974 ], [ 124.962512829885085, 10.231225098381984 ], [ 124.961324798368082, 10.231354687429684 ], [ 124.960597671612149, 10.231464924859907 ], [ 124.960189542263322, 10.2314954169525 ], [ 124.95960784081106, 10.231572818006917 ], [ 124.959394393947093, 10.231610345496504 ], [ 124.959061322862851, 10.231633801034389 ], [ 124.956994769011871, 10.231903575805282 ], [ 124.95645529308635, 10.231988752745986 ], [ 124.955484236395307, 10.232136392930977 ], [ 124.954604038720944, 10.232249962876029 ], [ 124.953536444363792, 10.232443029942567 ], [ 124.952644889839519, 10.232681522720588 ], [ 124.951753334470212, 10.232726953014396 ], [ 124.950856100427458, 10.232778061640987 ], [ 124.950299588108663, 10.232795098954854 ], [ 124.94914113455863, 10.232982488103719 ], [ 124.94879473607412, 10.233459467494361 ], [ 124.949220639310809, 10.233663884767784 ], [ 124.94822687259645, 10.234901760261879 ], [ 124.948136015666677, 10.235412808407139 ], [ 124.947937262135, 10.235617228362626 ], [ 124.947590862681636, 10.23587275372776 ], [ 124.947233105832566, 10.236128279141779 ], [ 124.947113854916424, 10.236525761241861 ], [ 124.947017319214609, 10.237019774487498 ], [ 124.947113857203178, 10.237048165614938 ], [ 124.947238788805578, 10.237104948162528 ], [ 124.947187681593292, 10.237349115643454 ], [ 124.947062750388625, 10.237383186030401 ], [ 124.946932140287316, 10.23737182997445 ], [ 124.946835602671598, 10.237428613473108 ], [ 124.946949177275911, 10.237576249003986 ], [ 124.946966214413578, 10.237814737884026 ], [ 124.946829925315996, 10.237735242151572 ], [ 124.946704994285341, 10.237809060697419 ], [ 124.946676601541668, 10.237979410071675 ], [ 124.946534634541621, 10.238081620232791 ], [ 124.94660561950208, 10.238364115771507 ], [ 124.946398348831167, 10.238775794021814 ], [ 124.946264899430489, 10.238775794594972 ], [ 124.946171201263169, 10.238855291315286 ], [ 124.946057627690507, 10.238943305583513 ], [ 124.945878749402652, 10.239102298987568 ], [ 124.946068986130456, 10.239181794488363 ], [ 124.945995163828414, 10.2393578223665 ], [ 124.946134292722618, 10.239539527638428 ], [ 124.946355761766739, 10.239499778528206 ], [ 124.946466497258385, 10.239701358001605 ], [ 124.946270583026305, 10.23989442132951 ], [ 124.946298978231354, 10.240286224488869 ], [ 124.946009364451939, 10.240243638419658 ], [ 124.945887272994142, 10.240368561729566 ], [ 124.945733948051299, 10.240345849154455 ], [ 124.945719750722176, 10.240212408967341 ], [ 124.945611855064257, 10.240121556495977 ], [ 124.945532353716388, 10.240218088080814 ], [ 124.945438655623704, 10.24031461972652 ], [ 124.945058184405852, 10.24066667648356 ], [ 124.94551248062352, 10.240754688312743 ], [ 124.945765182667529, 10.240751848072984 ], [ 124.945821970927199, 10.241044280713265 ], [ 124.945600501883106, 10.241084029823652 ], [ 124.945441498441397, 10.24110674374046 ], [ 124.945222868833213, 10.241166366918225 ], [ 124.944808324570175, 10.241322522181047 ], [ 124.944601052096615, 10.241322523071485 ], [ 124.944470443250992, 10.241597921591847 ], [ 124.944192187439114, 10.241685936568027 ], [ 124.943936646642598, 10.241825056222652 ], [ 124.943857145419102, 10.241949979349982 ], [ 124.943462477170357, 10.242236735621951 ], [ 124.943388654570171, 10.242344623799616 ], [ 124.94329211816067, 10.242676805258531 ], [ 124.943320512769446, 10.242932329016682 ], [ 124.943317674577045, 10.243196370371834 ], [ 124.943272245727442, 10.243363880666342 ], [ 124.942934364333652, 10.243622245152846 ], [ 124.942451676155656, 10.243883449415925 ], [ 124.942241564892683, 10.244011212259073 ], [ 124.941713447417243, 10.244337717264916 ], [ 124.918494885322772, 10.258519070995209 ], [ 124.912700717259796, 10.287798048905451 ] ] ] } }
]
}
