{
"type": "FeatureCollection",
"name": "Susceptibility_Storm_Surge_WGS84",
"crs": { "type": "name", "properties": { "name": "urn:ogc:def:crs:OGC:1.3:CRS84" } },
"features": [
{ "type": "Feature", "properties": { "Name": null, "descriptio": null, "timestamp": null, "begin": null, "end": null, "altitudeMo": null, "tessellate": 1, "extrude": 1, "visibility": -1, "drawOrder": null, "icon": null, "Name_2": null, "descript_1": null, "timestamp_": null, "begin_2": null, "end_2": null, "altitude_1": null, "tessella_1": 1, "extrude_2": 1, "visibili_1": -1, "drawOrder_": null, "icon_2": null }, "geometry": { "type": "Polygon", "coordinates": [ [ [ 124.981288470248899, 10.308247187664952 ], [ 124.981214398488945, 10.308171724154237 ], [ 124.981155700216618, 10.308135389970911 ], [ 124.980908330734778, 10.308392527057125 ], [ 124.980888782482111, 10.308375549864461 ], [ 124.980527072590874, 10.308723132452961 ], [ 124.980278234043908, 10.308929616483484 ], [ 124.980080785220153, 10.309084545407607 ], [ 124.979741058635568, 10.309200487338572 ], [ 124.979163822277826, 10.309335590099092 ], [ 124.978699527629885, 10.309476600807232 ], [ 124.978619873758547, 10.309523455835086 ], [ 124.978667228050568, 10.309617557380363 ], [ 124.978709243561809, 10.309903641204052 ], [ 124.980370216153602, 10.309475026496951 ], [ 124.980982346028597, 10.309027834723421 ], [ 124.981259061429412, 10.308642132952169 ], [ 124.981426805331694, 10.308382120560127 ], [ 124.981426799282474, 10.30838204371555 ], [ 124.981426821952752, 10.308382018409269 ], [ 124.981288470248899, 10.308247187664952 ] ] ] } },
{ "type": "Feature", "properties": { "Name": null, "descriptio": null, "timestamp": null, "begin": null, "end": null, "altitudeMo": null, "tessellate": 1, "extrude": 1, "visibility": -1, "drawOrder": null, "icon": null, "Name_2": null, "descript_1": null, "timestamp_": null, "begin_2": null, "end_2": null, "altitude_1": null, "tessella_1": 1, "extrude_2": 1, "visibili_1": -1, "drawOrder_": null, "icon_2": null }, "geometry": { "type": "Polygon", "coordinates": [ [ [ 124.982334688290479, 10.302083428505624 ], [ 124.982269654450377, 10.302042190765881 ], [ 124.982301519393417, 10.302330432627169 ], [ 124.982295331628421, 10.302944826180035 ], [ 124.982250335784315, 10.303757644575388 ], [ 124.982226408687211, 10.304738699313853 ], [ 124.982173266122075, 10.305838863227395 ], [ 124.982085947124546, 10.306285296630319 ], [ 124.981889896622789, 10.306930581709503 ], [ 124.981821796176433, 10.307248025908329 ], [ 124.981433100575885, 10.307755673676754 ], [ 124.981178407817509, 10.308061423505629 ], [ 124.980938598159497, 10.308327679757095 ], [ 124.980888782482111, 10.308375549864461 ], [ 124.980908330734778, 10.308392527057125 ], [ 124.981155700216618, 10.308135389970911 ], [ 124.981214398488945, 10.308171724154237 ], [ 124.981288470248899, 10.308247187664952 ], [ 124.981426817932558, 10.308382022896938 ], [ 124.981846509991371, 10.307913530205679 ], [ 124.981866393940251, 10.307883161219641 ], [ 124.982164602777161, 10.307211958576595 ], [ 124.982250233481849, 10.306958114969841 ], [ 124.982367521785122, 10.306501557568666 ], [ 124.982435546377687, 10.306184113832449 ], [ 124.982443397807884, 10.305837214341137 ], [ 124.982500253515241, 10.305321650815076 ], [ 124.982517498955303, 10.304875645174221 ], [ 124.982584968167359, 10.304469006710949 ], [ 124.982600425588657, 10.303735716224882 ], [ 124.982615512626552, 10.302942872173789 ], [ 124.982573251410997, 10.302586427850324 ], [ 124.982541185718702, 10.302259653997798 ], [ 124.982514463792995, 10.302082036410683 ], [ 124.982334688290479, 10.302083428505624 ] ] ] } },
{ "type": "Feature", "properties": { "Name": null, "descriptio": null, "timestamp": null, "begin": null, "end": null, "altitudeMo": null, "tessellate": 1, "extrude": 1, "visibility": -1, "drawOrder": null, "icon": null, "Name_2": null, "descript_1": null, "timestamp_": null, "begin_2": null, "end_2": null, "altitude_1": null, "tessella_1": 1, "extrude_2": 1, "visibili_1": -1, "drawOrder_": null, "icon_2": null }, "geometry": { "type": "Polygon", "coordinates": [ [ [ 124.975947146170526, 10.313107754525861 ], [ 124.97592884726879, 10.313385311955745 ], [ 124.975915762442455, 10.313702511515842 ], [ 124.975857587872937, 10.313995132958269 ], [ 124.975764370263292, 10.314244678957278 ], [ 124.97563099742959, 10.314452174722719 ], [ 124.975517830270462, 10.31465285982588 ], [ 124.975372787816298, 10.314835754669971 ], [ 124.975323734385228, 10.314894766620489 ], [ 124.976073691919524, 10.315304814931556 ], [ 124.97609643752989, 10.314847296862768 ], [ 124.97609502614155, 10.314170667220461 ], [ 124.976314722775044, 10.313083554709744 ], [ 124.975970185196374, 10.312859044890647 ], [ 124.975947146170526, 10.313107754525861 ] ] ] } },
{ "type": "Feature", "properties": { "Name": null, "descriptio": null, "timestamp": null, "begin": null, "end": null, "altitudeMo": null, "tessellate": 1, "extrude": 1, "visibility": -1, "drawOrder": null, "icon": null, "Name_2": null, "descript_1": null, "timestamp_": null, "begin_2": null, "end_2": null, "altitude_1": null, "tessella_1": 1, "extrude_2": 1, "visibili_1": -1, "drawOrder_": null, "icon_2": null }, "geometry": { "type": "Polygon", "coordinates": [ [ [ 124.975308041786036, 10.322740759851497 ], [ 124.97512665673851, 10.322707679270081 ], [ 124.975147957021605, 10.322849168960838 ], [ 124.975102870020891, 10.323079714749385 ], [ 124.97507090216979, 10.323277375120849 ], [ 124.975012533107886, 10.323514599071748 ], [ 124.974914467932138, 10.323771766205523 ], [ 124.974642470780935, 10.323839305044995 ], [ 124.974469845752623, 10.323860057750753 ], [ 124.97441805298115, 10.324077540252462 ], [ 124.974492408194877, 10.324281060001679 ], [ 124.974360664460093, 10.324472730784342 ], [ 124.974309361575465, 10.324769106220208 ], [ 124.974210723674418, 10.324934186362567 ], [ 124.974079306182617, 10.325178452395523 ], [ 124.973967467895719, 10.325363404649545 ], [ 124.973775752974944, 10.325522454228357 ], [ 124.973596789165654, 10.325589335645544 ], [ 124.973404134684728, 10.325597105767097 ], [ 124.973158297419062, 10.325598602239697 ], [ 124.972951911429675, 10.325540663848658 ], [ 124.972772055446825, 10.325475966603545 ], [ 124.972514894843997, 10.325423759298102 ], [ 124.972422061140364, 10.32565098068299 ], [ 124.972280809638477, 10.326011794633823 ], [ 124.972419917982037, 10.326007570627427 ], [ 124.973611454469761, 10.325971390240335 ], [ 124.975193255967923, 10.323952962906366 ], [ 124.975683203063923, 10.322852769814382 ], [ 124.975308041786036, 10.322740759851497 ] ] ] } },
{ "type": "Feature", "properties": { "Name": null, "descriptio": null, "timestamp": null, "begin": null, "end": null, "altitudeMo": null, "tessellate": 1, "extrude": 1, "visibility": -1, "drawOrder": null, "icon": null, "Name_2": null, "descript_1": null, "timestamp_": null, "begin_2": null, "end_2": null, "altitude_1": null, "tessella_1": 1, "extrude_2": 1, "visibili_1": -1, "drawOrder_": null, "icon_2": null }, "geometry": { "type": "Polygon", "coordinates": [ [ [ 124.976751638856996, 10.310488537731162 ], [ 124.976778485588838, 10.310642099173066 ], [ 124.976744967432225, 10.31079602821022 ], [ 124.976661860255959, 10.310903807360315 ], [ 124.976543239671955, 10.311062411779137 ], [ 124.976451488896728, 10.311257092251964 ], [ 124.976314719808414, 10.311705363136214 ], [ 124.976244126215931, 10.312107140722125 ], [ 124.976212451174575, 10.312363993716559 ], [ 124.976146799501208, 10.312482782460556 ], [ 124.976055565462588, 10.312772893973634 ], [ 124.975970566542998, 10.312854928198318 ], [ 124.975970185169402, 10.312859045181771 ], [ 124.976314712008019, 10.313083552622237 ], [ 124.976951002444537, 10.310900072225575 ], [ 124.977052747937748, 10.310699442301434 ], [ 124.976759809858606, 10.310486944709206 ], [ 124.976751638856996, 10.310488537731162 ] ] ] } },
{ "type": "Feature", "properties": { "Name": null, "descriptio": null, "timestamp": null, "begin": null, "end": null, "altitudeMo": null, "tessellate": 1, "extrude": 1, "visibility": -1, "drawOrder": null, "icon": null, "Name_2": null, "descript_1": null, "timestamp_": null, "begin_2": null, "end_2": null, "altitude_1": null, "tessella_1": 1, "extrude_2": 1, "visibili_1": -1, "drawOrder_": null, "icon_2": null }, "geometry": { "type": "Polygon", "coordinates": [ [ [ 124.978667228050568, 10.309617557380363 ], [ 124.978619873758547, 10.309523455835086 ], [ 124.978236125333609, 10.309749188854637 ], [ 124.97789237031941, 10.310040839154748 ], [ 124.977693674904899, 10.310140827620007 ], [ 124.977389319722349, 10.310353160924208 ], [ 124.977251444453842, 10.310417081263095 ], [ 124.977079111812344, 10.310435211431125 ], [ 124.976924852971095, 10.31045476778776 ], [ 124.97675980740938, 10.310486945186712 ], [ 124.977052737170837, 10.310699440215235 ], [ 124.977105658898097, 10.310587649482752 ], [ 124.978063096706094, 10.310284034071165 ], [ 124.978063128811428, 10.310283880966121 ], [ 124.978316776340691, 10.310203434928328 ], [ 124.97831703741879, 10.310203381033993 ], [ 124.978709254328109, 10.309903643289591 ], [ 124.978667228050568, 10.309617557380363 ] ] ] } },
{ "type": "Feature", "properties": { "Name": null, "descriptio": null, "timestamp": null, "begin": null, "end": null, "altitudeMo": null, "tessellate": 1, "extrude": 1, "visibility": -1, "drawOrder": null, "icon": null, "Name_2": null, "descript_1": null, "timestamp_": null, "begin_2": null, "end_2": null, "altitude_1": null, "tessella_1": 1, "extrude_2": 1, "visibili_1": -1, "drawOrder_": null, "icon_2": null }, "geometry": { "type": "Polygon", "coordinates": [ [ [ 124.982269654450377, 10.302042190765881 ], [ 124.982334688290479, 10.302083428505624 ], [ 124.982514463631901, 10.302082035339909 ], [ 124.982489051053918, 10.301913120529695 ], [ 124.982346317197681, 10.301497823738524 ], [ 124.982234059913594, 10.301141806323704 ], [ 124.982073531112064, 10.300830185341113 ], [ 124.982189608523029, 10.301461546194048 ], [ 124.982252628073581, 10.30188817425182 ], [ 124.982269654450377, 10.302042190765881 ] ] ] } },
{ "type": "Feature", "properties": { "Name": null, "descriptio": null, "timestamp": null, "begin": null, "end": null, "altitudeMo": null, "tessellate": 1, "extrude": 1, "visibility": -1, "drawOrder": null, "icon": null, "Name_2": null, "descript_1": null, "timestamp_": null, "begin_2": null, "end_2": null, "altitude_1": null, "tessella_1": 1, "extrude_2": 1, "visibili_1": -1, "drawOrder_": null, "icon_2": null }, "geometry": { "type": "Polygon", "coordinates": [ [ [ 124.97512665673851, 10.322707679270081 ], [ 124.975308041786036, 10.322740759851497 ], [ 124.975683192297367, 10.322852767721928 ], [ 124.976654890298263, 10.319955319865416 ], [ 124.976640774856008, 10.317955897887419 ], [ 124.976127299863023, 10.316226594089802 ], [ 124.976073702686492, 10.315304817020202 ], [ 124.975323734970686, 10.314894765916163 ], [ 124.975287165694255, 10.314938759240826 ], [ 124.975163579098975, 10.315061605906161 ], [ 124.975042602866253, 10.315095690039541 ], [ 124.975116610715716, 10.315255832967264 ], [ 124.975165689509524, 10.315401577510075 ], [ 124.975199997367781, 10.315508099559471 ], [ 124.975252430833677, 10.315648581998889 ], [ 124.975293797002749, 10.315861430450267 ], [ 124.975380112580396, 10.316064064154659 ], [ 124.975561677532696, 10.316295760293796 ], [ 124.975783857354145, 10.316631318970135 ], [ 124.975980723270169, 10.316902595438441 ], [ 124.976117278580972, 10.317134655604638 ], [ 124.97616842689736, 10.317322591553012 ], [ 124.97622984612677, 10.317540197714616 ], [ 124.976306168860702, 10.317757713052199 ], [ 124.976407318167503, 10.318057858987643 ], [ 124.976434705933613, 10.318189275568383 ], [ 124.976409198637867, 10.318360507535148 ], [ 124.97639011068695, 10.318498804529229 ], [ 124.976384631311745, 10.318683018590679 ], [ 124.976332472295738, 10.318841308827039 ], [ 124.976233510041254, 10.318953793864111 ], [ 124.97620101725937, 10.319078978039334 ], [ 124.976121919470842, 10.319178147538572 ], [ 124.976115990816822, 10.319290065750714 ], [ 124.976109863931242, 10.319382193427328 ], [ 124.976144196211223, 10.319553060827023 ], [ 124.976152292260366, 10.319789970169854 ], [ 124.976133285646725, 10.319941370799766 ], [ 124.976114851784871, 10.32018494865868 ], [ 124.975983641578779, 10.320462109516553 ], [ 124.975878790537777, 10.320693019400954 ], [ 124.975761434566351, 10.321055679309397 ], [ 124.975610843090379, 10.321411944443307 ], [ 124.975526312732271, 10.321715119501082 ], [ 124.975368612988646, 10.322005636168784 ], [ 124.97521642644692, 10.322105250837867 ], [ 124.975117380971, 10.322204541772718 ], [ 124.975084758573601, 10.322296830862648 ], [ 124.975018826040895, 10.322382815962555 ], [ 124.974999001643155, 10.322402638087887 ], [ 124.975112759528358, 10.322526931459059 ], [ 124.975120241712361, 10.322665066646659 ], [ 124.97512665673851, 10.322707679270081 ] ] ] } },
{ "type": "Feature", "properties": { "Name": null, "descriptio": null, "timestamp": null, "begin": null, "end": null, "altitudeMo": null, "tessellate": 1, "extrude": 1, "visibility": -1, "drawOrder": null, "icon": null, "Name_2": null, "descript_1": null, "timestamp_": null, "begin_2": null, "end_2": null, "altitude_1": null, "tessella_1": 1, "extrude_2": 1, "visibili_1": -1, "drawOrder_": null, "icon_2": null }, "geometry": { "type": "Polygon", "coordinates": [ [ [ 124.978273866715455, 10.230328013763527 ], [ 124.978326602217052, 10.230546482103534 ], [ 124.978389384075285, 10.229412705574115 ], [ 124.978338792367566, 10.229495280395298 ], [ 124.978299615192, 10.229634240797674 ], [ 124.978231085578713, 10.229882369272422 ], [ 124.978212610903256, 10.230120344283664 ], [ 124.978273866715455, 10.230328013763527 ] ] ] } },
{ "type": "Feature", "properties": { "Name": null, "descriptio": null, "timestamp": null, "begin": null, "end": null, "altitudeMo": null, "tessellate": 1, "extrude": 1, "visibility": -1, "drawOrder": null, "icon": null, "Name_2": null, "descript_1": null, "timestamp_": null, "begin_2": null, "end_2": null, "altitude_1": null, "tessella_1": 1, "extrude_2": 1, "visibili_1": -1, "drawOrder_": null, "icon_2": null }, "geometry": { "type": "Polygon", "coordinates": [ [ [ 124.978241373831736, 10.233162144828208 ], [ 124.978343152736628, 10.233448916960537 ], [ 124.978374277506845, 10.233627126039382 ], [ 124.978364032835515, 10.233796276954811 ], [ 124.978373792891134, 10.233975609407837 ], [ 124.978314443580928, 10.234138279437058 ], [ 124.9784680646071, 10.234240827568524 ], [ 124.978648993067353, 10.23437845602448 ], [ 124.978790439011547, 10.234605522000329 ], [ 124.978948545046791, 10.23488607852668 ], [ 124.979113839613447, 10.235124206224999 ], [ 124.97936552936963, 10.235387476767219 ], [ 124.979389405108435, 10.235449541565693 ], [ 124.979377439189193, 10.235274027647256 ], [ 124.979350072169112, 10.23521450764156 ], [ 124.979081688728044, 10.234792007074166 ], [ 124.979055955249336, 10.234574836496778 ], [ 124.97856352507506, 10.233503848547066 ], [ 124.978415753967894, 10.233191912402107 ], [ 124.978394301316328, 10.23314350305558 ], [ 124.978381229902951, 10.233131565749069 ], [ 124.978383246239332, 10.233118556525346 ], [ 124.978239099243552, 10.232793278576706 ], [ 124.978241373831736, 10.233162144828208 ] ] ] } },
{ "type": "Feature", "properties": { "Name": null, "descriptio": null, "timestamp": null, "begin": null, "end": null, "altitudeMo": null, "tessellate": 1, "extrude": 1, "visibility": -1, "drawOrder": null, "icon": null, "Name_2": null, "descript_1": null, "timestamp_": null, "begin_2": null, "end_2": null, "altitude_1": null, "tessella_1": 1, "extrude_2": 1, "visibili_1": -1, "drawOrder_": null, "icon_2": null }, "geometry": { "type": "Polygon", "coordinates": [ [ [ 124.981764362716248, 10.242385273016538 ], [ 124.981930274033601, 10.242136420723549 ], [ 124.982005153017653, 10.241809251747542 ], [ 124.980527953516685, 10.240047476540667 ], [ 124.980239449290593, 10.239716777908001 ], [ 124.979601809322986, 10.238354760797048 ], [ 124.979604858260231, 10.238524427365562 ], [ 124.979577589766478, 10.239007638743161 ], [ 124.979579066192031, 10.239246757999396 ], [ 124.979633453229383, 10.239682028634791 ], [ 124.97954837564852, 10.239870430473491 ], [ 124.979494070990938, 10.240021321645354 ], [ 124.979472479740025, 10.240144269987931 ], [ 124.979706150599227, 10.240279499019444 ], [ 124.97986643412726, 10.240375769703222 ], [ 124.980107770950454, 10.240582437319555 ], [ 124.980308965423816, 10.240759524766005 ], [ 124.980671322439136, 10.241114122586119 ], [ 124.980983086274847, 10.24137973770849 ], [ 124.981276120218681, 10.241853595886912 ], [ 124.981608392196975, 10.242198343229889 ], [ 124.981764362716248, 10.242385273016538 ] ] ] } },
{ "type": "Feature", "properties": { "Name": null, "descriptio": null, "timestamp": null, "begin": null, "end": null, "altitudeMo": null, "tessellate": 1, "extrude": 1, "visibility": -1, "drawOrder": null, "icon": null, "Name_2": null, "descript_1": null, "timestamp_": null, "begin_2": null, "end_2": null, "altitude_1": null, "tessella_1": 1, "extrude_2": 1, "visibili_1": -1, "drawOrder_": null, "icon_2": null }, "geometry": { "type": "Polygon", "coordinates": [ [ [ 124.986087995291527, 10.248859133521451 ], [ 124.986267573907156, 10.24883073630253 ], [ 124.98455366960836, 10.244169167316365 ], [ 124.984345322419458, 10.244016385465285 ], [ 124.983629750769637, 10.244698237341616 ], [ 124.983649195898906, 10.244833622833216 ], [ 124.983607367401163, 10.245030257909445 ], [ 124.983634289419257, 10.245209485264752 ], [ 124.9836357172112, 10.245440109077055 ], [ 124.983939396775668, 10.245444229103004 ], [ 124.984219485423282, 10.245442527540064 ], [ 124.984560852791446, 10.245638641764875 ], [ 124.984883308054208, 10.246013176747415 ], [ 124.985268271695531, 10.246783707856737 ], [ 124.985592694622824, 10.247475349064267 ], [ 124.985846936176799, 10.248147624812546 ], [ 124.986019956371535, 10.248622206032199 ], [ 124.986087995291527, 10.248859133521451 ] ] ] } },
{ "type": "Feature", "properties": { "Name": null, "descriptio": null, "timestamp": null, "begin": null, "end": null, "altitudeMo": null, "tessellate": 1, "extrude": 1, "visibility": -1, "drawOrder": null, "icon": null, "Name_2": null, "descript_1": null, "timestamp_": null, "begin_2": null, "end_2": null, "altitude_1": null, "tessella_1": 1, "extrude_2": 1, "visibili_1": -1, "drawOrder_": null, "icon_2": null }, "geometry": { "type": "Polygon", "coordinates": [ [ [ 124.981930274033601, 10.242136420723549 ], [ 124.981764362716248, 10.242385273016538 ], [ 124.982011507310247, 10.24268147372401 ], [ 124.982293738594208, 10.243026523659076 ], [ 124.982535950886444, 10.243361965425917 ], [ 124.982768584650444, 10.243766871736922 ], [ 124.98319165918177, 10.244239937824583 ], [ 124.983493113148754, 10.244456087617383 ], [ 124.983622220798281, 10.24464581033639 ], [ 124.983629750603839, 10.244698236187267 ], [ 124.984345311650387, 10.24401638341333 ], [ 124.98426803505177, 10.243809615121426 ], [ 124.982796927275558, 10.24246510836814 ], [ 124.982679800964036, 10.242380784014143 ], [ 124.982005163787861, 10.241809253798785 ], [ 124.981930274033601, 10.242136420723549 ] ] ] } },
{ "type": "Feature", "properties": { "Name": null, "descriptio": null, "timestamp": null, "begin": null, "end": null, "altitudeMo": null, "tessellate": 1, "extrude": 1, "visibility": -1, "drawOrder": null, "icon": null, "Name_2": null, "descript_1": null, "timestamp_": null, "begin_2": null, "end_2": null, "altitude_1": null, "tessella_1": 1, "extrude_2": 1, "visibili_1": -1, "drawOrder_": null, "icon_2": null }, "geometry": { "type": "Polygon", "coordinates": [ [ [ 124.986267573907156, 10.24883073630253 ], [ 124.986087995291527, 10.248859133521451 ], [ 124.986173328104357, 10.249156281702415 ], [ 124.986305639019847, 10.24952212030043 ], [ 124.986357942633262, 10.249898386644858 ], [ 124.98636095375511, 10.25038385243699 ], [ 124.986334677190825, 10.250988517760828 ], [ 124.98632923062668, 10.251711896895372 ], [ 124.986252541214554, 10.252257313158044 ], [ 124.986304489953667, 10.25256408466405 ], [ 124.98640653130721, 10.25289052369842 ], [ 124.986453351956314, 10.2534259701449 ], [ 124.986464974205447, 10.253904243923245 ], [ 124.986496192570982, 10.254435718482236 ], [ 124.986514181608086, 10.254767972383922 ], [ 124.986603753361763, 10.254378353710489 ], [ 124.986456486871617, 10.253179640117937 ], [ 124.98645709576779, 10.253160522208908 ], [ 124.986456425273971, 10.253155064504579 ], [ 124.986544375412436, 10.250393701605079 ], [ 124.986267573907156, 10.24883073630253 ] ] ] } },
{ "type": "Feature", "properties": { "Name": null, "descriptio": null, "timestamp": null, "begin": null, "end": null, "altitudeMo": null, "tessellate": 1, "extrude": 1, "visibility": -1, "drawOrder": null, "icon": null, "Name_2": null, "descript_1": null, "timestamp_": null, "begin_2": null, "end_2": null, "altitude_1": null, "tessella_1": 1, "extrude_2": 1, "visibili_1": -1, "drawOrder_": null, "icon_2": null }, "geometry": { "type": "Polygon", "coordinates": [ [ [ 124.983373773459036, 10.257316916515965 ], [ 124.983123633000019, 10.257221874257308 ], [ 124.982854517127222, 10.257169944377875 ], [ 124.982852596683699, 10.257167342691115 ], [ 124.982811652728273, 10.257189116204799 ], [ 124.982848143558641, 10.257430552387321 ], [ 124.982848606745563, 10.257590329410599 ], [ 124.982870187306801, 10.257757388677016 ], [ 124.982832361721194, 10.258114321655379 ], [ 124.982803869751351, 10.258362207811894 ], [ 124.982758916414824, 10.258771239093376 ], [ 124.982731713537035, 10.259227156549304 ], [ 124.982713599031499, 10.259534445202931 ], [ 124.982765547557179, 10.259841307934293 ], [ 124.98288729978232, 10.26011801346786 ], [ 124.983049763878228, 10.260503461433753 ], [ 124.983191227750169, 10.260730522390444 ], [ 124.983291139839977, 10.261113910413677 ], [ 124.983357113449756, 10.261267143568052 ], [ 124.983413077527388, 10.261420347202543 ], [ 124.983449467527549, 10.261633135413014 ], [ 124.983455079943781, 10.261737211156911 ], [ 124.98343610631791, 10.26190578213393 ], [ 124.983441824267231, 10.262014737385149 ], [ 124.983532106867386, 10.262058742188163 ], [ 124.983644410879975, 10.262146534350777 ], [ 124.983705295932907, 10.262231566587273 ], [ 124.983758162131352, 10.262419130732921 ], [ 124.98382828466255, 10.262598094793235 ], [ 124.983887036842432, 10.262824573898635 ], [ 124.98403046915341, 10.263368651104562 ], [ 124.984124594350064, 10.264031959235698 ], [ 124.984142467012092, 10.264241066721748 ], [ 124.98425862754388, 10.264289880361371 ], [ 124.984150010384852, 10.26353541110581 ], [ 124.983845920699437, 10.261424150045467 ], [ 124.983822313650435, 10.261287242296184 ], [ 124.983369065327679, 10.260191981489198 ], [ 124.982948865219413, 10.258926765956293 ], [ 124.982953585834309, 10.25878041615916 ], [ 124.983321839783144, 10.257416056919553 ], [ 124.983373773459036, 10.257316916515965 ] ] ] } },
{ "type": "Feature", "properties": { "Name": null, "descriptio": null, "timestamp": null, "begin": null, "end": null, "altitudeMo": null, "tessellate": 1, "extrude": 1, "visibility": -1, "drawOrder": null, "icon": null, "Name_2": null, "descript_1": null, "timestamp_": null, "begin_2": null, "end_2": null, "altitude_1": null, "tessella_1": 1, "extrude_2": 1, "visibili_1": -1, "drawOrder_": null, "icon_2": null }, "geometry": { "type": "Polygon", "coordinates": [ [ [ 124.982199470003195, 10.279799146520238 ], [ 124.982199856783097, 10.279786140043738 ], [ 124.98219989046008, 10.279786069632246 ], [ 124.982199900827766, 10.279785720994312 ], [ 124.982964241849132, 10.278017989209667 ], [ 124.983233870706584, 10.277247830477258 ], [ 124.983543355389259, 10.275828254080459 ], [ 124.983684031391334, 10.275443760806859 ], [ 124.983820018240124, 10.275082712228523 ], [ 124.98386222078534, 10.27490922145299 ], [ 124.983904423701361, 10.274820131506832 ], [ 124.983937247877932, 10.274679463316499 ], [ 124.984387376279017, 10.273240066708523 ], [ 124.984649937610925, 10.270122323917017 ], [ 124.984361107619847, 10.270140441302608 ], [ 124.984357312203826, 10.270897270679715 ], [ 124.984342646209868, 10.271759428695507 ], [ 124.98428635659269, 10.272354245580447 ], [ 124.984230976624659, 10.273107661663424 ], [ 124.984163632065261, 10.273534180885996 ], [ 124.984035738078518, 10.273881721385605 ], [ 124.983779198562658, 10.274467997753293 ], [ 124.983572889691771, 10.275083610523204 ], [ 124.983405695178249, 10.275550321330661 ], [ 124.983239054082887, 10.276106227009949 ], [ 124.983132114083929, 10.276592362576986 ], [ 124.983037042294512, 10.276832339907077 ], [ 124.982944776552884, 10.277039404331671 ], [ 124.982763557122851, 10.277235442654099 ], [ 124.982842210874111, 10.277405859273202 ], [ 124.982843536093242, 10.277619312500763 ], [ 124.982801207776745, 10.277747719339553 ], [ 124.982724834545863, 10.277944655570488 ], [ 124.982537489647271, 10.278330062877314 ], [ 124.982427526055332, 10.278680928318543 ], [ 124.98238336830164, 10.278878391363721 ], [ 124.982294956509932, 10.279136583492598 ], [ 124.982206592205046, 10.279414567047912 ], [ 124.982090508113615, 10.279955614846216 ], [ 124.982199470003195, 10.279799146520238 ] ] ] } },
{ "type": "Feature", "properties": { "Name": null, "descriptio": null, "timestamp": null, "begin": null, "end": null, "altitudeMo": null, "tessellate": 1, "extrude": 1, "visibility": -1, "drawOrder": null, "icon": null, "Name_2": null, "descript_1": null, "timestamp_": null, "begin_2": null, "end_2": null, "altitude_1": null, "tessella_1": 1, "extrude_2": 1, "visibili_1": -1, "drawOrder_": null, "icon_2": null }, "geometry": { "type": "Polygon", "coordinates": [ [ [ 124.982852596683699, 10.257167342691115 ], [ 124.982854517127222, 10.257169944377875 ], [ 124.983123633000019, 10.257221874257308 ], [ 124.983373773459036, 10.257316916515965 ], [ 124.983623107492633, 10.256649449209693 ], [ 124.984731976476255, 10.255994776661881 ], [ 124.985686935009028, 10.255858941962577 ], [ 124.986372544645604, 10.255408891367434 ], [ 124.986428791444126, 10.25516422982062 ], [ 124.986427421722581, 10.255145359467663 ], [ 124.985997220092941, 10.255439546962759 ], [ 124.985507688522787, 10.255551516162729 ], [ 124.985367687379707, 10.25557215978143 ], [ 124.985128301380314, 10.255682606279057 ], [ 124.984529238620567, 10.255874588127707 ], [ 124.984012487142707, 10.256148398426832 ], [ 124.98373142311749, 10.256285667209314 ], [ 124.983497281087622, 10.256501727065423 ], [ 124.983257186319378, 10.256716648142625 ], [ 124.983154769780015, 10.256888166434612 ], [ 124.983069374300769, 10.257025329805149 ], [ 124.982957773541614, 10.257111410841388 ], [ 124.982852596683699, 10.257167342691115 ] ] ] } },
{ "type": "Feature", "properties": { "Name": null, "descriptio": null, "timestamp": null, "begin": null, "end": null, "altitudeMo": null, "tessellate": 1, "extrude": 1, "visibility": -1, "drawOrder": null, "icon": null, "Name_2": null, "descript_1": null, "timestamp_": null, "begin_2": null, "end_2": null, "altitude_1": null, "tessella_1": 1, "extrude_2": 1, "visibili_1": -1, "drawOrder_": null, "icon_2": null }, "geometry": { "type": "Polygon", "coordinates": [ [ [ 124.984419901995366, 10.267704641392807 ], [ 124.98441896591018, 10.267553837577587 ], [ 124.984332129705123, 10.265785680284688 ], [ 124.984258630371841, 10.264289900004716 ], [ 124.984258627921164, 10.264289882981998 ], [ 124.984142467075046, 10.264241067458405 ], [ 124.984167766241299, 10.264537062933362 ], [ 124.98425072887197, 10.265002250599247 ], [ 124.984218756767945, 10.265271214816288 ], [ 124.984203345909378, 10.266001704034371 ], [ 124.984212575296311, 10.26640959202388 ], [ 124.984248948754569, 10.266922599408472 ], [ 124.984252256821449, 10.26745559976937 ], [ 124.984276938139715, 10.268218830980045 ], [ 124.984314741868502, 10.268962100153244 ], [ 124.984338874949486, 10.269539889035162 ], [ 124.984361784660862, 10.270005441975147 ], [ 124.984361107622718, 10.270140440726573 ], [ 124.984649926844014, 10.270122321852163 ], [ 124.984492863410082, 10.269058491342374 ], [ 124.984440655445084, 10.267995470425033 ], [ 124.984419901995366, 10.267704641392807 ] ] ] } },
{ "type": "Feature", "properties": { "Name": null, "descriptio": null, "timestamp": null, "begin": null, "end": null, "altitudeMo": null, "tessellate": 1, "extrude": 1, "visibility": -1, "drawOrder": null, "icon": null, "Name_2": null, "descript_1": null, "timestamp_": null, "begin_2": null, "end_2": null, "altitude_1": null, "tessella_1": 1, "extrude_2": 1, "visibili_1": -1, "drawOrder_": null, "icon_2": null }, "geometry": { "type": "Polygon", "coordinates": [ [ [ 124.980486017242242, 10.291957089620503 ], [ 124.980557933290001, 10.292253888937642 ], [ 124.980699906865553, 10.29256029288352 ], [ 124.980741177987881, 10.292758229795188 ], [ 124.980721896013662, 10.292877187946678 ], [ 124.980722572963515, 10.292986173840559 ], [ 124.980873264363822, 10.293084395160127 ], [ 124.981004858696679, 10.293331306177217 ], [ 124.981096905371956, 10.293657715309919 ], [ 124.981129459477302, 10.294063744135574 ], [ 124.981222505637703, 10.294538810842852 ], [ 124.981261345228717, 10.295035716633828 ], [ 124.981288648330107, 10.295529258521793 ], [ 124.981352896877453, 10.296202688771697 ], [ 124.981361983592492, 10.29734973910765 ], [ 124.981497357576785, 10.297191685063774 ], [ 124.981585898406237, 10.296908900587065 ], [ 124.981654192543814, 10.295855229017024 ], [ 124.981679113913614, 10.295123671569065 ], [ 124.981567001847367, 10.294395015611011 ], [ 124.981561699959371, 10.294388170166078 ], [ 124.981555772762732, 10.294325612252669 ], [ 124.981196258529209, 10.292873676361506 ], [ 124.981149379142096, 10.292606489383877 ], [ 124.980614963055899, 10.291504930573971 ], [ 124.980748822475178, 10.291193922346165 ], [ 124.980747573430051, 10.29119226469944 ], [ 124.980774121381586, 10.291135142950674 ], [ 124.980824405457483, 10.291018313040867 ], [ 124.980570200336658, 10.291005308971467 ], [ 124.980540724216795, 10.29109468680176 ], [ 124.980502345818522, 10.291362515482078 ], [ 124.980435180967334, 10.291818676419448 ], [ 124.980486017242242, 10.291957089620503 ] ] ] } }
]
}
